{"type":"FeatureCollection", "features": [
{"type":"Feature","geometry":{"type":"Polygon","coordinates":[[[87.266,27.177],[87.205,27.246],[87.195,27.352],[87.134,27.395],[87.143,27.447],[87.076,27.46],[87.013,27.436],[86.943,27.459],[86.908,27.433],[86.926,27.37],[86.988,27.308],[86.951,27.266],[86.9,27.252],[86.931,27.223],[86.917,27.127],[86.9,27.116],[86.967,27.058],[86.947,27.02],[86.975,26.973],[86.954,26.904],[87.006,26.886],[87.118,26.923],[87.159,26.915],[87.151,26.939],[87.201,27.009],[87.186,27.074],[87.274,27.143],[87.266,27.177]]]},"properties":{"OBJECTID":1,"PROVINCE":1,"PR_NAME":"Province No 1","DISTRICT":"Bhojpur"}},
{"type":"Feature","geometry":{"type":"Polygon","coordinates":[[[87.159,26.915],[87.167,26.878],[87.221,26.863],[87.301,26.874],[87.35,26.849],[87.424,26.87],[87.583,26.861],[87.525,26.884],[87.527,26.96],[87.495,26.985],[87.441,26.971],[87.443,27.006],[87.395,27.102],[87.409,27.136],[87.36,27.191],[87.266,27.177],[87.274,27.143],[87.186,27.074],[87.201,27.009],[87.151,26.939],[87.159,26.915]]]},"properties":{"OBJECTID":2,"PROVINCE":1,"PR_NAME":"Province No 1","DISTRICT":"Dhankuta"}},
{"type":"Feature","geometry":{"type":"Polygon","coordinates":[[[87.994,27.105],[87.898,27.092],[87.781,27.013],[87.746,27.021],[87.68,26.952],[87.709,26.929],[87.691,26.881],[87.602,26.862],[87.65,26.831],[87.69,26.75],[87.707,26.701],[87.768,26.665],[87.817,26.694],[87.936,26.688],[87.961,26.781],[87.984,26.752],[88.03,26.777],[88.047,26.748],[88.095,26.801],[88.121,26.748],[88.157,26.795],[88.187,26.783],[88.174,26.869],[88.139,26.898],[88.121,26.987],[88.08,27.035],[88.04,27.036],[87.994,27.105]]]},"properties":{"OBJECTID":3,"PROVINCE":1,"PR_NAME":"Province No 1","DISTRICT":"Ilam"}},
{"type":"Feature","geometry":{"type":"Polygon","coordinates":[[[87.69,26.75],[87.658,26.716],[87.642,26.598],[87.651,26.485],[87.682,26.435],[87.767,26.41],[87.796,26.468],[87.851,26.436],[87.903,26.477],[87.919,26.43],[87.994,26.392],[88.01,26.361],[88.098,26.439],[88.102,26.538],[88.166,26.646],[88.187,26.783],[88.157,26.795],[88.121,26.748],[88.095,26.801],[88.047,26.748],[88.03,26.777],[87.984,26.752],[87.961,26.781],[87.936,26.688],[87.817,26.694],[87.768,26.665],[87.707,26.701],[87.69,26.75]]]},"properties":{"OBJECTID":4,"PROVINCE":1,"PR_NAME":"Province No 1","DISTRICT":"Jhapa"}},
{"type":"Feature","geometry":{"type":"Polygon","coordinates":[[[86.908,27.433],[86.825,27.44],[86.754,27.394],[86.683,27.39],[86.681,27.353],[86.673,27.272],[86.62,27.234],[86.559,27.227],[86.529,27.194],[86.436,27.149],[86.462,27.105],[86.517,27.114],[86.579,27.151],[86.671,27.12],[86.749,27.024],[86.775,26.885],[86.836,26.875],[86.865,26.895],[86.954,26.904],[86.975,26.973],[86.947,27.02],[86.967,27.058],[86.9,27.116],[86.917,27.127],[86.931,27.223],[86.9,27.252],[86.951,27.266],[86.988,27.308],[86.926,27.37],[86.908,27.433]]]},"properties":{"OBJECTID":5,"PROVINCE":1,"PR_NAME":"Province No 1","DISTRICT":"Khotang"}},
{"type":"Feature","geometry":{"type":"Polygon","coordinates":[[[87.35,26.849],[87.326,26.788],[87.341,26.736],[87.287,26.652],[87.304,26.629],[87.286,26.559],[87.248,26.521],[87.248,26.414],[87.268,26.374],[87.343,26.347],[87.391,26.419],[87.469,26.44],[87.55,26.418],[87.59,26.382],[87.654,26.393],[87.682,26.435],[87.651,26.485],[87.642,26.598],[87.658,26.716],[87.69,26.75],[87.65,26.831],[87.602,26.862],[87.583,26.861],[87.424,26.87],[87.35,26.849]]]},"properties":{"OBJECTID":6,"PROVINCE":1,"PR_NAME":"Province No 1","DISTRICT":"Morang"}},
{"type":"Feature","geometry":{"type":"Polygon","coordinates":[[[86.681,27.353],[86.66,27.34],[86.573,27.34],[86.511,27.411],[86.472,27.422],[86.443,27.485],[86.358,27.526],[86.266,27.456],[86.224,27.382],[86.221,27.323],[86.243,27.288],[86.206,27.25],[86.259,27.257],[86.343,27.229],[86.347,27.202],[86.392,27.18],[86.436,27.149],[86.529,27.194],[86.559,27.227],[86.62,27.234],[86.673,27.272],[86.681,27.353]]]},"properties":{"OBJECTID":7,"PROVINCE":1,"PR_NAME":"Province No 1","DISTRICT":"Okhaldhunga"}},
{"type":"Feature","geometry":{"type":"Polygon","coordinates":[[[87.583,26.861],[87.602,26.862],[87.691,26.881],[87.709,26.929],[87.68,26.952],[87.746,27.021],[87.781,27.013],[87.898,27.092],[87.994,27.105],[88.01,27.143],[88.034,27.286],[88.069,27.336],[88.044,27.37],[88.071,27.438],[88.04,27.413],[88.006,27.329],[87.953,27.282],[87.842,27.286],[87.784,27.273],[87.699,27.291],[87.682,27.271],[87.754,27.218],[87.714,27.157],[87.592,27.099],[87.495,26.985],[87.527,26.96],[87.525,26.884],[87.583,26.861]]]},"properties":{"OBJECTID":8,"PROVINCE":1,"PR_NAME":"Province No 1","DISTRICT":"Panchthar"}},
{"type":"Feature","geometry":{"type":"Polygon","coordinates":[[[87.266,27.177],[87.36,27.191],[87.409,27.136],[87.423,27.176],[87.454,27.179],[87.492,27.265],[87.519,27.296],[87.447,27.406],[87.49,27.546],[87.484,27.567],[87.53,27.603],[87.564,27.698],[87.61,27.675],[87.679,27.788],[87.668,27.807],[87.672,27.835],[87.614,27.811],[87.565,27.867],[87.54,27.844],[87.493,27.846],[87.452,27.822],[87.406,27.834],[87.32,27.826],[87.268,27.851],[87.228,27.82],[87.129,27.834],[87.081,27.915],[87.042,27.95],[86.986,27.949],[86.97,27.902],[87.013,27.815],[86.981,27.75],[87.011,27.726],[86.986,27.646],[86.962,27.619],[86.969,27.541],[86.946,27.517],[86.965,27.483],[86.943,27.459],[87.013,27.436],[87.076,27.46],[87.143,27.447],[87.134,27.395],[87.195,27.352],[87.205,27.246],[87.266,27.177]]]},"properties":{"OBJECTID":9,"PROVINCE":1,"PR_NAME":"Province No 1","DISTRICT":"Sankhuwasabha"}},
{"type":"Feature","geometry":{"type":"Polygon","coordinates":[[[86.943,27.459],[86.965,27.483],[86.946,27.517],[86.969,27.541],[86.962,27.619],[86.986,27.646],[87.011,27.726],[86.981,27.75],[87.013,27.815],[86.97,27.902],[86.986,27.949],[86.936,27.962],[86.928,27.988],[86.857,28.028],[86.793,28.019],[86.75,28.045],[86.767,28.074],[86.741,28.104],[86.692,28.108],[86.638,28.07],[86.565,28.107],[86.568,28.069],[86.539,28.051],[86.518,27.956],[86.55,27.93],[86.557,27.857],[86.545,27.811],[86.569,27.804],[86.54,27.67],[86.495,27.613],[86.437,27.61],[86.379,27.568],[86.358,27.526],[86.443,27.485],[86.472,27.422],[86.511,27.411],[86.573,27.34],[86.66,27.34],[86.681,27.353],[86.683,27.39],[86.754,27.394],[86.825,27.44],[86.908,27.433],[86.943,27.459]]]},"properties":{"OBJECTID":10,"PROVINCE":1,"PR_NAME":"Province No 1","DISTRICT":"Solukhumbu"}},
{"type":"Feature","geometry":{"type":"Polygon","coordinates":[[[87.167,26.878],[87.102,26.751],[87.045,26.756],[87.012,26.711],[87.015,26.67],[86.981,26.625],[86.994,26.571],[86.936,26.533],[86.907,26.488],[86.935,26.516],[87.018,26.532],[87.047,26.587],[87.074,26.585],[87.094,26.45],[87.165,26.404],[87.248,26.414],[87.248,26.521],[87.286,26.559],[87.304,26.629],[87.287,26.652],[87.341,26.736],[87.326,26.788],[87.35,26.849],[87.301,26.874],[87.221,26.863],[87.167,26.878]]]},"properties":{"OBJECTID":11,"PROVINCE":1,"PR_NAME":"Province No 1","DISTRICT":"Sunsari"}},
{"type":"Feature","geometry":{"type":"Polygon","coordinates":[[[88.071,27.438],[88.047,27.478],[88.088,27.59],[88.147,27.665],[88.161,27.741],[88.2,27.791],[88.176,27.82],[88.204,27.837],[88.138,27.881],[88.098,27.867],[88.03,27.905],[87.987,27.886],[87.933,27.918],[87.868,27.911],[87.859,27.948],[87.788,27.9],[87.728,27.805],[87.668,27.807],[87.679,27.788],[87.61,27.675],[87.564,27.698],[87.53,27.603],[87.484,27.567],[87.49,27.546],[87.447,27.406],[87.519,27.296],[87.682,27.271],[87.699,27.291],[87.784,27.273],[87.842,27.286],[87.953,27.282],[88.006,27.329],[88.04,27.413],[88.071,27.438]]]},"properties":{"OBJECTID":12,"PROVINCE":1,"PR_NAME":"Province No 1","DISTRICT":"Taplejung"}},
{"type":"Feature","geometry":{"type":"Polygon","coordinates":[[[87.495,26.985],[87.592,27.099],[87.714,27.157],[87.754,27.218],[87.682,27.271],[87.519,27.296],[87.492,27.265],[87.454,27.179],[87.423,27.176],[87.409,27.136],[87.395,27.102],[87.443,27.006],[87.441,26.971],[87.495,26.985]]]},"properties":{"OBJECTID":13,"PROVINCE":1,"PR_NAME":"Province No 1","DISTRICT":"Terhathum"}},
{"type":"Feature","geometry":{"type":"Polygon","coordinates":[[[86.954,26.904],[86.865,26.895],[86.836,26.875],[86.775,26.885],[86.749,27.024],[86.671,27.12],[86.579,27.151],[86.517,27.114],[86.462,27.105],[86.436,27.149],[86.392,27.18],[86.327,27.11],[86.365,27.1],[86.353,27.069],[86.382,27.034],[86.355,26.964],[86.284,26.947],[86.262,26.919],[86.262,26.918],[86.256,26.911],[86.254,26.912],[86.251,26.914],[86.248,26.914],[86.244,26.905],[86.24,26.903],[86.237,26.903],[86.229,26.904],[86.226,26.894],[86.225,26.889],[86.223,26.888],[86.222,26.889],[86.221,26.889],[86.219,26.893],[86.216,26.897],[86.205,26.901],[86.194,26.904],[86.192,26.905],[86.187,26.908],[86.184,26.91],[86.182,26.913],[86.168,26.923],[86.165,26.924],[86.164,26.925],[86.16,26.93],[86.181,26.899],[86.249,26.863],[86.301,26.885],[86.368,26.872],[86.385,26.908],[86.421,26.906],[86.554,26.835],[86.534,26.788],[86.58,26.775],[86.556,26.747],[86.591,26.697],[86.687,26.688],[86.741,26.712],[86.756,26.693],[86.802,26.712],[86.85,26.691],[86.913,26.739],[86.911,26.759],[87.012,26.711],[87.045,26.756],[87.102,26.751],[87.167,26.878],[87.159,26.915],[87.118,26.923],[87.006,26.886],[86.954,26.904]]]},"properties":{"OBJECTID":14,"PROVINCE":1,"PR_NAME":"Province No 1","DISTRICT":"Udayapur"}},
{"type":"Feature","geometry":{"type":"Polygon","coordinates":[[[85.183,27.254],[85.158,27.262],[85.097,27.332],[85.089,27.361],[84.972,27.356],[84.961,27.307],[84.975,27.269],[84.947,27.163],[84.942,27.094],[84.902,27.046],[84.913,27.018],[84.868,26.983],[84.965,26.96],[84.97,26.916],[85.06,26.885],[85.024,26.855],[85.102,26.871],[85.179,26.869],[85.166,26.979],[85.202,27.038],[85.199,27.107],[85.233,27.134],[85.272,27.228],[85.271,27.227],[85.269,27.226],[85.268,27.227],[85.265,27.227],[85.263,27.227],[85.262,27.228],[85.258,27.236],[85.254,27.241],[85.254,27.245],[85.248,27.246],[85.247,27.247],[85.246,27.248],[85.244,27.249],[85.237,27.246],[85.235,27.244],[85.234,27.243],[85.229,27.244],[85.226,27.245],[85.219,27.244],[85.219,27.245],[85.218,27.246],[85.217,27.246],[85.216,27.246],[85.209,27.248],[85.204,27.25],[85.202,27.249],[85.201,27.248],[85.201,27.247],[85.199,27.245],[85.192,27.246],[85.186,27.247],[85.185,27.247],[85.18,27.249],[85.18,27.25],[85.183,27.254]]]},"properties":{"OBJECTID":15,"PROVINCE":2,"PR_NAME":"Province No 2","DISTRICT":"Bara"}},
{"type":"Feature","geometry":{"type":"Polygon","coordinates":[[[86.262,26.919],[86.26,26.926],[86.259,26.929],[86.255,26.933],[86.255,26.934],[86.252,26.936],[86.247,26.938],[86.242,26.942],[86.24,26.944],[86.231,26.949],[86.223,26.955],[86.221,26.954],[86.221,26.955],[86.221,26.957],[86.214,26.964],[86.212,26.966],[86.211,26.966],[86.206,26.969],[86.205,26.969],[86.204,26.97],[86.199,26.972],[86.195,26.976],[86.188,26.982],[86.177,26.987],[86.169,26.989],[86.159,26.993],[86.145,26.999],[86.136,27.003],[86.126,27.007],[86.125,27.008],[86.119,27.011],[86.109,27.015],[86.085,27.018],[86.05,27.021],[86.039,27.02],[86.037,27.02],[86.022,27.019],[86.02,27.019],[86.018,27.02],[86.017,27.02],[86.016,27.019],[86.015,27.018],[86.003,27.021],[86.001,27.022],[85.99,27.028],[85.989,27.029],[85.98,27.041],[85.979,27.043],[85.972,27.055],[85.973,27.056],[85.972,27.058],[85.971,27.063],[85.97,27.065],[85.968,27.069],[85.967,27.073],[85.966,27.073],[85.965,27.079],[85.962,27.081],[85.961,27.082],[85.953,27.084],[85.953,27.085],[85.953,27.088],[85.95,27.088],[85.949,27.09],[85.945,27.095],[85.942,27.1],[85.939,27.115],[85.94,27.122],[85.933,27.124],[85.926,27.126],[85.913,27.132],[85.908,27.134],[85.908,27.133],[85.907,27.133],[85.906,27.132],[85.904,27.128],[85.904,27.126],[85.919,27.11],[85.92,27.108],[85.937,27.099],[85.939,27.083],[85.942,27.071],[85.948,27.061],[85.942,27.053],[85.939,27.05],[85.935,27.044],[85.933,27.042],[85.92,27.043],[85.919,27.043],[85.921,27.036],[85.927,27.035],[85.927,27.034],[85.927,27.025],[85.919,27.018],[85.915,27.01],[85.916,27.001],[85.916,26.995],[85.915,26.987],[85.914,26.986],[85.913,26.984],[85.911,26.978],[85.911,26.976],[85.911,26.974],[85.909,26.962],[85.909,26.961],[85.909,26.959],[85.913,26.959],[85.914,26.959],[85.917,26.959],[85.92,26.956],[85.916,26.94],[85.917,26.94],[85.917,26.939],[85.915,26.932],[85.915,26.923],[85.914,26.922],[85.912,26.921],[85.91,26.919],[85.908,26.914],[85.907,26.912],[85.905,26.906],[85.904,26.904],[85.904,26.899],[85.903,26.898],[85.901,26.883],[85.9,26.882],[85.904,26.872],[85.906,26.871],[85.911,26.87],[85.919,26.864],[85.919,26.862],[85.92,26.86],[85.92,26.859],[85.921,26.856],[85.92,26.855],[85.921,26.854],[85.922,26.854],[85.921,26.853],[85.922,26.846],[85.921,26.842],[85.921,26.841],[85.92,26.833],[85.918,26.828],[85.919,26.823],[85.916,26.817],[85.914,26.808],[85.913,26.806],[85.912,26.806],[85.911,26.806],[85.912,26.805],[85.913,26.802],[85.911,26.788],[85.91,26.784],[85.902,26.779],[85.9,26.776],[85.899,26.767],[85.896,26.763],[85.895,26.763],[85.895,26.762],[85.894,26.762],[85.891,26.759],[85.889,26.759],[85.886,26.759],[85.886,26.76],[85.883,26.755],[85.882,26.751],[85.883,26.75],[85.884,26.743],[85.885,26.743],[85.886,26.742],[85.887,26.742],[85.888,26.742],[85.888,26.741],[85.888,26.74],[85.89,26.74],[85.891,26.736],[85.895,26.722],[85.895,26.721],[85.896,26.72],[85.894,26.717],[85.894,26.714],[85.892,26.712],[85.891,26.712],[85.891,26.702],[85.891,26.7],[85.889,26.698],[85.891,26.697],[85.894,26.693],[85.902,26.687],[85.903,26.685],[85.909,26.679],[85.908,26.676],[85.904,26.67],[85.903,26.67],[85.899,26.668],[85.908,26.664],[85.908,26.663],[85.907,26.657],[85.908,26.656],[85.908,26.655],[85.906,26.653],[85.905,26.653],[85.904,26.653],[85.901,26.652],[85.895,26.646],[85.889,26.642],[85.883,26.636],[85.882,26.635],[85.881,26.635],[85.878,26.637],[85.877,26.637],[85.877,26.636],[85.874,26.634],[85.872,26.63],[85.867,26.628],[85.864,26.618],[85.857,26.618],[85.855,26.615],[85.854,26.612],[85.854,26.61],[85.857,26.61],[85.856,26.608],[85.857,26.606],[85.86,26.569],[85.916,26.609],[85.95,26.614],[85.959,26.649],[86.029,26.666],[86.153,26.614],[86.156,26.623],[86.157,26.624],[86.153,26.634],[86.153,26.637],[86.158,26.639],[86.161,26.64],[86.163,26.64],[86.167,26.638],[86.168,26.639],[86.17,26.64],[86.172,26.65],[86.172,26.651],[86.177,26.652],[86.18,26.653],[86.185,26.655],[86.193,26.664],[86.197,26.665],[86.199,26.672],[86.202,26.683],[86.196,26.698],[86.196,26.699],[86.197,26.701],[86.196,26.703],[86.195,26.708],[86.194,26.712],[86.191,26.715],[86.191,26.718],[86.188,26.721],[86.184,26.729],[86.183,26.731],[86.183,26.732],[86.179,26.738],[86.179,26.742],[86.178,26.745],[86.174,26.75],[86.172,26.75],[86.167,26.75],[86.166,26.75],[86.161,26.752],[86.159,26.755],[86.159,26.756],[86.147,26.788],[86.148,26.79],[86.153,26.795],[86.153,26.796],[86.154,26.8],[86.155,26.803],[86.155,26.813],[86.156,26.815],[86.156,26.823],[86.153,26.837],[86.158,26.845],[86.155,26.852],[86.151,26.853],[86.141,26.875],[86.14,26.877],[86.137,26.883],[86.137,26.886],[86.134,26.89],[86.134,26.893],[86.136,26.899],[86.135,26.914],[86.139,26.918],[86.142,26.921],[86.151,26.93],[86.151,26.931],[86.161,26.934],[86.16,26.93],[86.164,26.925],[86.165,26.924],[86.168,26.923],[86.182,26.913],[86.184,26.91],[86.187,26.908],[86.192,26.905],[86.194,26.904],[86.205,26.901],[86.216,26.897],[86.219,26.893],[86.221,26.889],[86.222,26.889],[86.223,26.888],[86.225,26.889],[86.226,26.894],[86.229,26.904],[86.237,26.903],[86.24,26.903],[86.244,26.905],[86.248,26.914],[86.251,26.914],[86.254,26.912],[86.256,26.911],[86.262,26.918],[86.262,26.919]]]},"properties":{"OBJECTID":16,"PROVINCE":2,"PR_NAME":"Province No 2","DISTRICT":"Dhanusha"}},
{"type":"Feature","geometry":{"type":"Polygon","coordinates":[[[85.908,27.134],[85.864,27.127],[85.818,27.161],[85.803,27.105],[85.75,27.034],[85.683,26.843],[85.737,26.796],[85.728,26.67],[85.82,26.602],[85.857,26.606],[85.856,26.608],[85.857,26.61],[85.854,26.61],[85.854,26.612],[85.855,26.615],[85.857,26.618],[85.864,26.618],[85.867,26.628],[85.872,26.63],[85.874,26.634],[85.877,26.636],[85.877,26.637],[85.878,26.637],[85.881,26.635],[85.882,26.635],[85.883,26.636],[85.889,26.642],[85.895,26.646],[85.901,26.652],[85.904,26.653],[85.905,26.653],[85.906,26.653],[85.908,26.655],[85.908,26.656],[85.907,26.657],[85.908,26.663],[85.908,26.664],[85.899,26.668],[85.903,26.67],[85.904,26.67],[85.908,26.676],[85.909,26.679],[85.903,26.685],[85.902,26.687],[85.894,26.693],[85.891,26.697],[85.889,26.698],[85.891,26.7],[85.891,26.702],[85.891,26.712],[85.892,26.712],[85.894,26.714],[85.894,26.717],[85.896,26.72],[85.895,26.721],[85.895,26.722],[85.891,26.736],[85.89,26.74],[85.888,26.74],[85.888,26.741],[85.888,26.742],[85.887,26.742],[85.886,26.742],[85.885,26.743],[85.884,26.743],[85.883,26.75],[85.882,26.751],[85.883,26.755],[85.886,26.76],[85.886,26.759],[85.889,26.759],[85.891,26.759],[85.894,26.762],[85.895,26.762],[85.895,26.763],[85.896,26.763],[85.899,26.767],[85.9,26.776],[85.902,26.779],[85.91,26.784],[85.911,26.788],[85.913,26.802],[85.912,26.805],[85.911,26.806],[85.912,26.806],[85.913,26.806],[85.914,26.808],[85.916,26.817],[85.919,26.823],[85.918,26.828],[85.92,26.833],[85.921,26.841],[85.921,26.842],[85.922,26.846],[85.921,26.853],[85.922,26.854],[85.921,26.854],[85.92,26.855],[85.921,26.856],[85.92,26.859],[85.92,26.86],[85.919,26.862],[85.919,26.864],[85.911,26.87],[85.906,26.871],[85.904,26.872],[85.9,26.882],[85.901,26.883],[85.903,26.898],[85.904,26.899],[85.904,26.904],[85.905,26.906],[85.907,26.912],[85.908,26.914],[85.91,26.919],[85.912,26.921],[85.914,26.922],[85.915,26.923],[85.915,26.932],[85.917,26.939],[85.917,26.94],[85.916,26.94],[85.92,26.956],[85.917,26.959],[85.914,26.959],[85.913,26.959],[85.909,26.959],[85.909,26.961],[85.909,26.962],[85.911,26.974],[85.911,26.976],[85.911,26.978],[85.913,26.984],[85.914,26.986],[85.915,26.987],[85.916,26.995],[85.916,27.001],[85.915,27.01],[85.919,27.018],[85.927,27.025],[85.927,27.034],[85.927,27.035],[85.921,27.036],[85.919,27.043],[85.92,27.043],[85.933,27.042],[85.935,27.044],[85.939,27.05],[85.942,27.053],[85.948,27.061],[85.942,27.071],[85.939,27.083],[85.937,27.099],[85.92,27.108],[85.919,27.11],[85.904,27.126],[85.904,27.128],[85.906,27.132],[85.907,27.133],[85.908,27.133],[85.908,27.134]]]},"properties":{"OBJECTID":17,"PROVINCE":2,"PR_NAME":"Province No 2","DISTRICT":"Mahottari"}},
{"type":"Feature","geometry":{"type":"Polygon","coordinates":[[[84.972,27.356],[84.854,27.398],[84.793,27.437],[84.728,27.444],[84.667,27.429],[84.563,27.462],[84.541,27.385],[84.488,27.358],[84.567,27.347],[84.634,27.323],[84.692,27.223],[84.673,27.098],[84.645,27.046],[84.759,27.003],[84.819,27.021],[84.868,26.983],[84.913,27.018],[84.902,27.046],[84.942,27.094],[84.947,27.163],[84.975,27.269],[84.961,27.307],[84.972,27.356]]]},"properties":{"OBJECTID":18,"PROVINCE":2,"PR_NAME":"Province No 2","DISTRICT":"Parsa"}},
{"type":"Feature","geometry":{"type":"Polygon","coordinates":[[[85.179,26.869],[85.179,26.815],[85.2,26.769],[85.328,26.744],[85.354,26.761],[85.324,26.803],[85.346,26.86],[85.398,26.892],[85.404,26.977],[85.388,27.008],[85.474,27.118],[85.492,27.154],[85.497,27.173],[85.475,27.162],[85.395,27.21],[85.394,27.209],[85.393,27.209],[85.39,27.209],[85.39,27.208],[85.389,27.208],[85.379,27.212],[85.377,27.211],[85.375,27.21],[85.371,27.212],[85.368,27.212],[85.361,27.213],[85.359,27.213],[85.358,27.215],[85.352,27.22],[85.341,27.219],[85.337,27.221],[85.335,27.223],[85.329,27.224],[85.325,27.225],[85.313,27.23],[85.309,27.232],[85.307,27.23],[85.303,27.23],[85.294,27.232],[85.293,27.231],[85.283,27.231],[85.282,27.229],[85.282,27.228],[85.279,27.229],[85.276,27.229],[85.274,27.229],[85.272,27.228],[85.233,27.134],[85.199,27.107],[85.202,27.038],[85.166,26.979],[85.179,26.869]]]},"properties":{"OBJECTID":19,"PROVINCE":2,"PR_NAME":"Province No 2","DISTRICT":"Rautahat"}},
{"type":"Feature","geometry":{"type":"Polygon","coordinates":[[[87.012,26.711],[86.911,26.759],[86.913,26.739],[86.85,26.691],[86.802,26.712],[86.756,26.693],[86.741,26.712],[86.687,26.688],[86.591,26.697],[86.556,26.747],[86.58,26.775],[86.534,26.788],[86.505,26.723],[86.501,26.657],[86.514,26.599],[86.488,26.549],[86.544,26.538],[86.573,26.496],[86.636,26.464],[86.75,26.429],[86.769,26.459],[86.836,26.439],[86.896,26.462],[86.907,26.488],[86.936,26.533],[86.994,26.571],[86.981,26.625],[87.015,26.67],[87.012,26.711]]]},"properties":{"OBJECTID":20,"PROVINCE":2,"PR_NAME":"Province No 2","DISTRICT":"Saptari"}},
{"type":"Feature","geometry":{"type":"Polygon","coordinates":[[[85.818,27.161],[85.728,27.195],[85.631,27.137],[85.492,27.154],[85.474,27.118],[85.388,27.008],[85.404,26.977],[85.398,26.892],[85.346,26.86],[85.324,26.803],[85.354,26.761],[85.328,26.744],[85.41,26.791],[85.454,26.781],[85.545,26.838],[85.626,26.873],[85.683,26.843],[85.75,27.034],[85.803,27.105],[85.818,27.161]]]},"properties":{"OBJECTID":21,"PROVINCE":2,"PR_NAME":"Province No 2","DISTRICT":"Sarlahi"}},
{"type":"Feature","geometry":{"type":"Polygon","coordinates":[[[86.16,26.93],[86.161,26.934],[86.151,26.931],[86.151,26.93],[86.142,26.921],[86.139,26.918],[86.135,26.914],[86.136,26.899],[86.134,26.893],[86.134,26.89],[86.137,26.886],[86.137,26.883],[86.14,26.877],[86.141,26.875],[86.151,26.853],[86.155,26.852],[86.158,26.845],[86.153,26.837],[86.156,26.823],[86.156,26.815],[86.155,26.813],[86.155,26.803],[86.154,26.8],[86.153,26.796],[86.153,26.795],[86.148,26.79],[86.147,26.788],[86.159,26.756],[86.159,26.755],[86.161,26.752],[86.166,26.75],[86.167,26.75],[86.172,26.75],[86.174,26.75],[86.178,26.745],[86.179,26.742],[86.179,26.738],[86.183,26.732],[86.183,26.731],[86.184,26.729],[86.188,26.721],[86.191,26.718],[86.191,26.715],[86.194,26.712],[86.195,26.708],[86.196,26.703],[86.197,26.701],[86.196,26.699],[86.196,26.698],[86.202,26.683],[86.199,26.672],[86.197,26.665],[86.193,26.664],[86.185,26.655],[86.18,26.653],[86.177,26.652],[86.172,26.651],[86.172,26.65],[86.17,26.64],[86.168,26.639],[86.167,26.638],[86.163,26.64],[86.161,26.64],[86.158,26.639],[86.153,26.637],[86.153,26.634],[86.157,26.624],[86.156,26.623],[86.153,26.614],[86.234,26.593],[86.256,26.614],[86.343,26.606],[86.488,26.549],[86.514,26.599],[86.501,26.657],[86.505,26.723],[86.534,26.788],[86.554,26.835],[86.421,26.906],[86.385,26.908],[86.368,26.872],[86.301,26.885],[86.249,26.863],[86.181,26.899],[86.16,26.93]]]},"properties":{"OBJECTID":22,"PROVINCE":2,"PR_NAME":"Province No 2","DISTRICT":"Siraha"}},
{"type":"Feature","geometry":{"type":"Polygon","coordinates":[[[85.527,27.725],[85.439,27.728],[85.354,27.668],[85.423,27.62],[85.463,27.625],[85.494,27.656],[85.527,27.725]]]},"properties":{"OBJECTID":23,"PROVINCE":3,"PR_NAME":"Bagmati Pradesh","DISTRICT":"Bhaktapur"}},
{"type":"Feature","geometry":{"type":"Polygon","coordinates":[[[84.667,27.429],[84.699,27.476],[84.682,27.551],[84.733,27.582],[84.72,27.639],[84.77,27.657],[84.794,27.687],[84.76,27.735],[84.695,27.721],[84.675,27.78],[84.64,27.783],[84.626,27.817],[84.668,27.825],[84.63,27.877],[84.561,27.858],[84.52,27.817],[84.448,27.823],[84.432,27.79],[84.462,27.774],[84.424,27.741],[84.43,27.704],[84.38,27.681],[84.351,27.703],[84.294,27.668],[84.208,27.638],[84.137,27.584],[84.121,27.556],[84.048,27.554],[84.039,27.539],[83.971,27.55],[83.922,27.541],[83.967,27.523],[83.933,27.449],[84.054,27.442],[84.1,27.517],[84.153,27.517],[84.151,27.486],[84.208,27.469],[84.21,27.443],[84.256,27.452],[84.284,27.396],[84.35,27.374],[84.488,27.358],[84.541,27.385],[84.563,27.462],[84.667,27.429]]]},"properties":{"OBJECTID":24,"PROVINCE":3,"PR_NAME":"Bagmati Pradesh","DISTRICT":"Chitawan"}},
{"type":"Feature","geometry":{"type":"Polygon","coordinates":[[[84.794,27.687],[84.832,27.692],[84.882,27.669],[84.909,27.698],[84.954,27.683],[84.994,27.708],[85.045,27.69],[85.103,27.708],[85.153,27.67],[85.191,27.681],[85.199,27.716],[85.269,27.745],[85.255,27.775],[85.127,27.76],[85.09,27.787],[85.015,27.809],[85.025,27.833],[84.991,27.885],[85.031,27.972],[84.998,28.025],[85.044,28.037],[85.064,28.067],[85.125,28.091],[85.196,28.168],[85.203,28.256],[85.162,28.332],[85.11,28.346],[85.049,28.326],[85.029,28.261],[84.964,28.213],[84.959,28.127],[84.895,28.1],[84.847,28.116],[84.812,28.034],[84.814,28.003],[84.749,27.96],[84.735,27.927],[84.784,27.816],[84.734,27.795],[84.668,27.825],[84.626,27.817],[84.64,27.783],[84.675,27.78],[84.695,27.721],[84.76,27.735],[84.794,27.687]]]},"properties":{"OBJECTID":25,"PROVINCE":3,"PR_NAME":"Bagmati Pradesh","DISTRICT":"Dhading"}},
{"type":"Feature","geometry":{"type":"Polygon","coordinates":[[[86.518,27.956],[86.469,27.941],[86.445,27.905],[86.384,27.938],[86.321,27.948],[86.291,27.978],[86.24,27.973],[86.207,28.085],[86.225,28.096],[86.189,28.174],[86.18,28.143],[86.12,28.091],[86.085,28.091],[86.082,28.022],[86.126,27.927],[86.067,27.9],[86.005,27.83],[86.03,27.739],[85.969,27.742],[85.939,27.71],[85.888,27.612],[85.955,27.589],[86.003,27.541],[86.003,27.502],[86.101,27.498],[86.118,27.478],[86.205,27.58],[86.291,27.603],[86.354,27.694],[86.43,27.734],[86.413,27.747],[86.422,27.813],[86.452,27.832],[86.489,27.809],[86.545,27.811],[86.557,27.857],[86.55,27.93],[86.518,27.956]]]},"properties":{"OBJECTID":26,"PROVINCE":3,"PR_NAME":"Bagmati Pradesh","DISTRICT":"Dolakha"}},
{"type":"Feature","geometry":{"type":"Polygon","coordinates":[[[85.423,27.62],[85.389,27.563],[85.439,27.541],[85.444,27.476],[85.409,27.447],[85.421,27.408],[85.475,27.37],[85.561,27.339],[85.641,27.352],[85.653,27.333],[85.706,27.345],[85.718,27.407],[85.776,27.398],[85.789,27.438],[85.824,27.451],[85.8,27.5],[85.826,27.567],[85.883,27.614],[85.818,27.646],[85.815,27.669],[85.749,27.677],[85.709,27.652],[85.682,27.699],[85.606,27.749],[85.552,27.757],[85.527,27.725],[85.494,27.656],[85.463,27.625],[85.423,27.62]]]},"properties":{"OBJECTID":27,"PROVINCE":3,"PR_NAME":"Bagmati Pradesh","DISTRICT":"Kabhrepalanchok"}},
{"type":"Feature","geometry":{"type":"Polygon","coordinates":[[[85.527,27.725],[85.552,27.757],[85.536,27.792],[85.477,27.778],[85.451,27.817],[85.294,27.809],[85.255,27.775],[85.269,27.745],[85.199,27.716],[85.191,27.681],[85.235,27.65],[85.245,27.578],[85.265,27.571],[85.294,27.597],[85.285,27.644],[85.309,27.693],[85.354,27.668],[85.439,27.728],[85.527,27.725]]]},"properties":{"OBJECTID":28,"PROVINCE":3,"PR_NAME":"Bagmati Pradesh","DISTRICT":"Kathmandu"}},
{"type":"Feature","geometry":{"type":"Polygon","coordinates":[[[85.354,27.668],[85.309,27.693],[85.285,27.644],[85.294,27.597],[85.265,27.571],[85.234,27.537],[85.27,27.453],[85.421,27.408],[85.409,27.447],[85.444,27.476],[85.439,27.541],[85.389,27.563],[85.423,27.62],[85.354,27.668]]]},"properties":{"OBJECTID":29,"PROVINCE":3,"PR_NAME":"Bagmati Pradesh","DISTRICT":"Lalitpur"}},
{"type":"Feature","geometry":{"type":"Polygon","coordinates":[[[85.272,27.228],[85.274,27.229],[85.276,27.229],[85.279,27.229],[85.282,27.228],[85.282,27.229],[85.283,27.231],[85.293,27.231],[85.294,27.232],[85.303,27.23],[85.307,27.23],[85.309,27.232],[85.313,27.23],[85.325,27.225],[85.329,27.224],[85.335,27.223],[85.337,27.221],[85.341,27.219],[85.352,27.22],[85.358,27.215],[85.359,27.213],[85.361,27.213],[85.368,27.212],[85.371,27.212],[85.375,27.21],[85.377,27.211],[85.379,27.212],[85.389,27.208],[85.39,27.208],[85.39,27.209],[85.393,27.209],[85.394,27.209],[85.395,27.21],[85.475,27.162],[85.497,27.173],[85.481,27.269],[85.433,27.292],[85.42,27.321],[85.475,27.37],[85.421,27.408],[85.27,27.453],[85.234,27.537],[85.265,27.571],[85.245,27.578],[85.235,27.65],[85.191,27.681],[85.153,27.67],[85.103,27.708],[85.045,27.69],[84.994,27.708],[84.954,27.683],[84.909,27.698],[84.882,27.669],[84.832,27.692],[84.794,27.687],[84.77,27.657],[84.72,27.639],[84.733,27.582],[84.682,27.551],[84.699,27.476],[84.667,27.429],[84.728,27.444],[84.793,27.437],[84.854,27.398],[84.972,27.356],[85.089,27.361],[85.097,27.332],[85.158,27.262],[85.183,27.254],[85.18,27.25],[85.18,27.249],[85.185,27.247],[85.186,27.247],[85.192,27.246],[85.199,27.245],[85.201,27.247],[85.201,27.248],[85.202,27.249],[85.204,27.25],[85.209,27.248],[85.216,27.246],[85.217,27.246],[85.218,27.246],[85.219,27.245],[85.219,27.244],[85.226,27.245],[85.229,27.244],[85.234,27.243],[85.235,27.244],[85.237,27.246],[85.244,27.249],[85.246,27.248],[85.247,27.247],[85.248,27.246],[85.254,27.245],[85.254,27.241],[85.258,27.236],[85.262,27.228],[85.263,27.227],[85.265,27.227],[85.268,27.227],[85.269,27.226],[85.271,27.227],[85.272,27.228]]]},"properties":{"OBJECTID":30,"PROVINCE":3,"PR_NAME":"Bagmati Pradesh","DISTRICT":"Makawanpur"}},
{"type":"Feature","geometry":{"type":"Polygon","coordinates":[[[85.255,27.775],[85.294,27.809],[85.451,27.817],[85.49,27.92],[85.499,28.03],[85.444,28.082],[85.406,28.04],[85.279,27.965],[85.19,27.976],[85.19,28.018],[85.135,28.038],[85.173,28.081],[85.125,28.091],[85.064,28.067],[85.044,28.037],[84.998,28.025],[85.031,27.972],[84.991,27.885],[85.025,27.833],[85.015,27.809],[85.09,27.787],[85.127,27.76],[85.255,27.775]]]},"properties":{"OBJECTID":31,"PROVINCE":3,"PR_NAME":"Bagmati Pradesh","DISTRICT":"Nuwakot"}},
{"type":"Feature","geometry":{"type":"Polygon","coordinates":[[[86.358,27.526],[86.379,27.568],[86.437,27.61],[86.495,27.613],[86.54,27.67],[86.569,27.804],[86.545,27.811],[86.489,27.809],[86.452,27.832],[86.422,27.813],[86.413,27.747],[86.43,27.734],[86.354,27.694],[86.291,27.603],[86.205,27.58],[86.118,27.478],[86.101,27.498],[86.003,27.502],[86.003,27.541],[85.955,27.589],[85.888,27.612],[85.883,27.614],[85.826,27.567],[85.8,27.5],[85.824,27.451],[85.979,27.371],[86.057,27.288],[86.114,27.272],[86.154,27.242],[86.206,27.25],[86.243,27.288],[86.221,27.323],[86.224,27.382],[86.266,27.456],[86.358,27.526]]]},"properties":{"OBJECTID":32,"PROVINCE":3,"PR_NAME":"Bagmati Pradesh","DISTRICT":"Ramechhap"}},
{"type":"Feature","geometry":{"type":"Polygon","coordinates":[[[85.125,28.091],[85.173,28.081],[85.135,28.038],[85.19,28.018],[85.19,27.976],[85.279,27.965],[85.406,28.04],[85.444,28.082],[85.492,28.106],[85.493,28.138],[85.535,28.167],[85.604,28.158],[85.634,28.13],[85.653,28.151],[85.802,28.196],[85.751,28.24],[85.74,28.319],[85.714,28.386],[85.686,28.382],[85.663,28.303],[85.611,28.257],[85.595,28.308],[85.509,28.334],[85.418,28.327],[85.38,28.278],[85.342,28.304],[85.257,28.294],[85.206,28.34],[85.162,28.332],[85.203,28.256],[85.196,28.168],[85.125,28.091]]]},"properties":{"OBJECTID":33,"PROVINCE":3,"PR_NAME":"Bagmati Pradesh","DISTRICT":"Rasuwa"}},
{"type":"Feature","geometry":{"type":"Polygon","coordinates":[[[86.206,27.25],[86.154,27.242],[86.114,27.272],[86.057,27.288],[85.979,27.371],[85.824,27.451],[85.789,27.438],[85.776,27.398],[85.718,27.407],[85.706,27.345],[85.653,27.333],[85.641,27.352],[85.561,27.339],[85.475,27.37],[85.42,27.321],[85.433,27.292],[85.481,27.269],[85.497,27.173],[85.492,27.154],[85.631,27.137],[85.728,27.195],[85.818,27.161],[85.864,27.127],[85.908,27.134],[85.913,27.132],[85.926,27.126],[85.933,27.124],[85.94,27.122],[85.939,27.115],[85.942,27.1],[85.945,27.095],[85.949,27.09],[85.95,27.088],[85.953,27.088],[85.953,27.085],[85.953,27.084],[85.961,27.082],[85.962,27.081],[85.965,27.079],[85.966,27.073],[85.967,27.073],[85.968,27.069],[85.97,27.065],[85.971,27.063],[85.972,27.058],[85.973,27.056],[85.972,27.055],[85.979,27.043],[85.98,27.041],[85.989,27.029],[85.99,27.028],[86.001,27.022],[86.003,27.021],[86.015,27.018],[86.016,27.019],[86.017,27.02],[86.018,27.02],[86.02,27.019],[86.022,27.019],[86.037,27.02],[86.039,27.02],[86.05,27.021],[86.085,27.018],[86.109,27.015],[86.119,27.011],[86.125,27.008],[86.126,27.007],[86.136,27.003],[86.145,26.999],[86.159,26.993],[86.169,26.989],[86.177,26.987],[86.188,26.982],[86.195,26.976],[86.199,26.972],[86.204,26.97],[86.205,26.969],[86.206,26.969],[86.211,26.966],[86.212,26.966],[86.214,26.964],[86.221,26.957],[86.221,26.955],[86.221,26.954],[86.223,26.955],[86.231,26.949],[86.24,26.944],[86.242,26.942],[86.247,26.938],[86.252,26.936],[86.255,26.934],[86.255,26.933],[86.259,26.929],[86.26,26.926],[86.262,26.919],[86.284,26.947],[86.355,26.964],[86.382,27.034],[86.353,27.069],[86.365,27.1],[86.327,27.11],[86.392,27.18],[86.347,27.202],[86.343,27.229],[86.259,27.257],[86.206,27.25]]]},"properties":{"OBJECTID":34,"PROVINCE":3,"PR_NAME":"Bagmati Pradesh","DISTRICT":"Sindhuli"}},
{"type":"Feature","geometry":{"type":"Polygon","coordinates":[[[86.067,27.9],[86.005,27.911],[85.951,27.942],[85.981,27.988],[85.904,28.053],[85.9,28.109],[85.872,28.124],[85.851,28.184],[85.802,28.196],[85.653,28.151],[85.634,28.13],[85.604,28.158],[85.535,28.167],[85.493,28.138],[85.492,28.106],[85.444,28.082],[85.499,28.03],[85.49,27.92],[85.451,27.817],[85.477,27.778],[85.536,27.792],[85.552,27.757],[85.606,27.749],[85.682,27.699],[85.709,27.652],[85.749,27.677],[85.815,27.669],[85.818,27.646],[85.883,27.614],[85.888,27.612],[85.939,27.71],[85.969,27.742],[86.03,27.739],[86.005,27.83],[86.067,27.9]]]},"properties":{"OBJECTID":35,"PROVINCE":3,"PR_NAME":"Bagmati Pradesh","DISTRICT":"Sindhupalchok"}},
{"type":"Feature","geometry":{"type":"Polygon","coordinates":[[[83.109,28.632],[83.059,28.62],[82.985,28.631],[82.959,28.611],[82.988,28.57],[82.976,28.542],[82.918,28.565],[82.916,28.527],[82.879,28.515],[82.914,28.481],[82.881,28.476],[82.957,28.36],[83.045,28.324],[83.099,28.277],[83.096,28.257],[83.186,28.271],[83.276,28.187],[83.365,28.192],[83.42,28.137],[83.556,28.117],[83.583,28.077],[83.632,28.122],[83.677,28.214],[83.612,28.259],[83.604,28.298],[83.565,28.317],[83.445,28.329],[83.413,28.357],[83.288,28.368],[83.298,28.416],[83.275,28.442],[83.302,28.461],[83.276,28.493],[83.221,28.514],[83.133,28.496],[83.104,28.541],[83.109,28.632]]]},"properties":{"OBJECTID":36,"PROVINCE":4,"PR_NAME":"Gandaki Pradesh","DISTRICT":"Baglung"}},
{"type":"Feature","geometry":{"type":"Polygon","coordinates":[[[84.668,27.825],[84.734,27.795],[84.784,27.816],[84.735,27.927],[84.749,27.96],[84.814,28.003],[84.812,28.034],[84.847,28.116],[84.895,28.1],[84.959,28.127],[84.964,28.213],[85.029,28.261],[85.049,28.326],[85.11,28.346],[85.127,28.397],[85.102,28.457],[85.188,28.533],[85.176,28.597],[85.2,28.627],[85.159,28.643],[85.118,28.686],[85.061,28.682],[84.951,28.58],[84.921,28.595],[84.859,28.571],[84.784,28.609],[84.697,28.636],[84.707,28.671],[84.671,28.683],[84.629,28.736],[84.559,28.752],[84.494,28.735],[84.522,28.695],[84.573,28.51],[84.57,28.483],[84.633,28.445],[84.697,28.361],[84.672,28.342],[84.635,28.23],[84.642,28.203],[84.612,28.16],[84.544,28.1],[84.481,28.089],[84.48,28.058],[84.427,27.952],[84.539,27.917],[84.561,27.858],[84.63,27.877],[84.668,27.825]]]},"properties":{"OBJECTID":37,"PROVINCE":4,"PR_NAME":"Gandaki Pradesh","DISTRICT":"Gorkha"}},
{"type":"Feature","geometry":{"type":"Polygon","coordinates":[[[84.271,28.456],[84.28,28.471],[84.191,28.489],[84.139,28.539],[84.087,28.538],[84.016,28.587],[83.874,28.613],[83.811,28.59],[83.83,28.542],[83.756,28.462],[83.734,28.42],[83.759,28.393],[83.703,28.398],[83.746,28.33],[83.777,28.309],[83.768,28.274],[83.825,28.251],[83.811,28.22],[83.893,28.194],[83.932,28.144],[83.982,28.143],[84.007,28.116],[84.072,28.078],[84.108,28.11],[84.228,28.096],[84.231,28.141],[84.196,28.188],[84.213,28.265],[84.189,28.291],[84.22,28.36],[84.215,28.386],[84.271,28.456]]]},"properties":{"OBJECTID":38,"PROVINCE":4,"PR_NAME":"Gandaki Pradesh","DISTRICT":"Kaski"}},
{"type":"Feature","geometry":{"type":"Polygon","coordinates":[[[84.57,28.483],[84.493,28.461],[84.464,28.5],[84.425,28.503],[84.4,28.456],[84.293,28.445],[84.271,28.456],[84.215,28.386],[84.22,28.36],[84.189,28.291],[84.213,28.265],[84.196,28.188],[84.231,28.141],[84.228,28.096],[84.234,28.079],[84.332,28.124],[84.398,28.13],[84.48,28.058],[84.481,28.089],[84.544,28.1],[84.612,28.16],[84.642,28.203],[84.635,28.23],[84.672,28.342],[84.697,28.361],[84.633,28.445],[84.57,28.483]]]},"properties":{"OBJECTID":39,"PROVINCE":4,"PR_NAME":"Gandaki Pradesh","DISTRICT":"Lamjung"}},
{"type":"Feature","geometry":{"type":"Polygon","coordinates":[[[84.494,28.735],[84.439,28.769],[84.437,28.82],[84.411,28.854],[84.347,28.872],[84.326,28.863],[84.276,28.887],[84.225,28.892],[84.192,28.899],[84.177,28.89],[84.163,28.875],[84.127,28.885],[84.124,28.883],[84.122,28.882],[84.092,28.879],[84.088,28.868],[84.089,28.859],[84.089,28.858],[84.088,28.853],[84.054,28.842],[84.054,28.841],[84.049,28.833],[84.048,28.831],[84.05,28.823],[84.047,28.822],[84.044,28.818],[84.043,28.816],[84.042,28.816],[84.042,28.815],[84.033,28.812],[84.031,28.812],[84.029,28.811],[84.028,28.811],[84.026,28.806],[84.023,28.801],[84.021,28.801],[84.02,28.801],[84.019,28.8],[84.018,28.799],[84.015,28.798],[84.012,28.8],[84.009,28.801],[84.008,28.801],[84.006,28.804],[84.005,28.806],[84.002,28.809],[84.001,28.81],[83.999,28.813],[83.994,28.814],[83.99,28.814],[83.987,28.815],[83.986,28.815],[83.984,28.816],[83.982,28.817],[83.981,28.817],[83.974,28.816],[83.97,28.817],[83.968,28.82],[83.967,28.824],[83.966,28.827],[83.961,28.834],[83.96,28.835],[83.951,28.834],[83.95,28.833],[83.949,28.832],[83.947,28.832],[83.946,28.831],[83.94,28.825],[83.941,28.824],[83.941,28.823],[83.942,28.82],[83.94,28.817],[83.941,28.811],[83.941,28.81],[83.944,28.808],[83.944,28.804],[83.943,28.8],[83.942,28.797],[83.941,28.794],[83.942,28.791],[83.941,28.789],[83.921,28.779],[83.913,28.779],[83.912,28.779],[83.91,28.779],[83.902,28.773],[83.899,28.77],[83.898,28.769],[83.898,28.768],[83.896,28.761],[83.896,28.758],[83.896,28.756],[83.893,28.746],[83.893,28.744],[83.892,28.743],[83.891,28.743],[83.889,28.742],[83.888,28.742],[83.883,28.738],[83.878,28.734],[83.877,28.733],[83.877,28.731],[83.876,28.731],[83.875,28.73],[83.875,28.728],[83.874,28.727],[83.873,28.727],[83.867,28.723],[83.866,28.723],[83.857,28.726],[83.852,28.726],[83.849,28.727],[83.845,28.726],[83.839,28.724],[83.838,28.723],[83.828,28.719],[83.826,28.718],[83.825,28.718],[83.824,28.718],[83.824,28.717],[83.823,28.715],[83.818,28.714],[83.815,28.714],[83.813,28.713],[83.81,28.709],[83.809,28.708],[83.807,28.706],[83.805,28.705],[83.804,28.703],[83.798,28.699],[83.796,28.698],[83.792,28.695],[83.792,28.694],[83.791,28.693],[83.839,28.665],[83.874,28.613],[84.016,28.587],[84.087,28.538],[84.139,28.539],[84.191,28.489],[84.28,28.471],[84.271,28.456],[84.293,28.445],[84.4,28.456],[84.425,28.503],[84.464,28.5],[84.493,28.461],[84.57,28.483],[84.573,28.51],[84.522,28.695],[84.494,28.735]]]},"properties":{"OBJECTID":40,"PROVINCE":4,"PR_NAME":"Gandaki Pradesh","DISTRICT":"Manang"}},
{"type":"Feature","geometry":{"type":"Polygon","coordinates":[[[84.192,28.899],[84.225,28.892],[84.223,28.916],[84.244,28.976],[84.25,29.037],[84.192,29.047],[84.203,29.124],[84.178,29.13],[84.166,29.194],[84.205,29.237],[84.115,29.249],[84.088,29.295],[84.026,29.289],[83.967,29.331],[83.907,29.326],[83.851,29.298],[83.815,29.302],[83.804,29.256],[83.713,29.245],[83.658,29.204],[83.682,29.123],[83.65,29.104],[83.64,29.107],[83.632,29.075],[83.62,29.055],[83.618,29.041],[83.615,29.036],[83.616,29.031],[83.617,29.028],[83.616,29.024],[83.618,29.017],[83.615,29.015],[83.617,29.01],[83.617,29.009],[83.618,29.004],[83.617,28.998],[83.617,28.992],[83.617,28.987],[83.613,28.983],[83.612,28.981],[83.61,28.98],[83.606,28.981],[83.605,28.982],[83.604,28.983],[83.601,28.985],[83.6,28.986],[83.59,28.978],[83.589,28.973],[83.589,28.971],[83.588,28.968],[83.586,28.966],[83.584,28.964],[83.584,28.96],[83.584,28.958],[83.58,28.955],[83.575,28.95],[83.573,28.947],[83.568,28.943],[83.568,28.944],[83.564,28.945],[83.56,28.943],[83.559,28.942],[83.56,28.94],[83.56,28.939],[83.56,28.938],[83.56,28.937],[83.553,28.928],[83.55,28.924],[83.548,28.921],[83.547,28.921],[83.543,28.916],[83.542,28.915],[83.54,28.914],[83.539,28.913],[83.534,28.909],[83.53,28.904],[83.527,28.901],[83.526,28.9],[83.526,28.899],[83.525,28.899],[83.524,28.897],[83.52,28.893],[83.518,28.891],[83.516,28.889],[83.515,28.888],[83.514,28.888],[83.513,28.888],[83.502,28.877],[83.502,28.875],[83.504,28.873],[83.508,28.866],[83.508,28.863],[83.508,28.858],[83.508,28.856],[83.505,28.853],[83.504,28.851],[83.503,28.845],[83.496,28.845],[83.493,28.846],[83.492,28.846],[83.49,28.846],[83.483,28.839],[83.483,28.836],[83.484,28.835],[83.485,28.834],[83.485,28.831],[83.485,28.829],[83.483,28.826],[83.482,28.822],[83.483,28.816],[83.484,28.816],[83.487,28.81],[83.49,28.804],[83.49,28.801],[83.489,28.791],[83.49,28.79],[83.496,28.79],[83.497,28.79],[83.502,28.793],[83.505,28.794],[83.508,28.791],[83.509,28.789],[83.513,28.788],[83.521,28.786],[83.522,28.785],[83.523,28.784],[83.53,28.783],[83.531,28.783],[83.536,28.781],[83.538,28.78],[83.542,28.778],[83.543,28.777],[83.549,28.776],[83.557,28.767],[83.557,28.76],[83.556,28.757],[83.557,28.757],[83.56,28.754],[83.56,28.751],[83.561,28.746],[83.556,28.741],[83.553,28.739],[83.549,28.731],[83.549,28.73],[83.548,28.727],[83.546,28.724],[83.546,28.723],[83.545,28.723],[83.543,28.719],[83.543,28.718],[83.542,28.716],[83.542,28.715],[83.541,28.715],[83.539,28.71],[83.54,28.702],[83.542,28.697],[83.541,28.696],[83.54,28.696],[83.539,28.695],[83.536,28.694],[83.534,28.685],[83.54,28.676],[83.54,28.675],[83.54,28.674],[83.543,28.672],[83.543,28.671],[83.543,28.67],[83.543,28.668],[83.543,28.666],[83.543,28.665],[83.545,28.659],[83.545,28.657],[83.55,28.651],[83.564,28.644],[83.564,28.642],[83.564,28.638],[83.565,28.636],[83.566,28.636],[83.566,28.628],[83.564,28.621],[83.564,28.619],[83.565,28.614],[83.565,28.612],[83.566,28.611],[83.568,28.61],[83.568,28.609],[83.567,28.606],[83.569,28.604],[83.573,28.598],[83.572,28.595],[83.58,28.586],[83.583,28.584],[83.585,28.586],[83.604,28.586],[83.606,28.586],[83.608,28.586],[83.609,28.585],[83.617,28.582],[83.618,28.581],[83.622,28.576],[83.625,28.575],[83.634,28.574],[83.638,28.574],[83.639,28.574],[83.644,28.572],[83.64,28.566],[83.642,28.566],[83.648,28.565],[83.666,28.568],[83.669,28.574],[83.675,28.577],[83.686,28.603],[83.686,28.609],[83.687,28.612],[83.701,28.619],[83.704,28.625],[83.706,28.629],[83.708,28.635],[83.71,28.641],[83.714,28.643],[83.718,28.646],[83.719,28.647],[83.72,28.65],[83.721,28.651],[83.725,28.653],[83.73,28.654],[83.732,28.654],[83.732,28.655],[83.729,28.659],[83.73,28.66],[83.73,28.667],[83.734,28.67],[83.736,28.67],[83.736,28.671],[83.739,28.672],[83.739,28.675],[83.742,28.682],[83.744,28.685],[83.745,28.686],[83.756,28.689],[83.759,28.688],[83.762,28.688],[83.763,28.688],[83.765,28.688],[83.766,28.688],[83.767,28.687],[83.768,28.687],[83.774,28.688],[83.781,28.689],[83.783,28.69],[83.784,28.691],[83.788,28.692],[83.791,28.693],[83.792,28.694],[83.792,28.695],[83.796,28.698],[83.798,28.699],[83.804,28.703],[83.805,28.705],[83.807,28.706],[83.809,28.708],[83.81,28.709],[83.813,28.713],[83.815,28.714],[83.818,28.714],[83.823,28.715],[83.824,28.717],[83.824,28.718],[83.825,28.718],[83.826,28.718],[83.828,28.719],[83.838,28.723],[83.839,28.724],[83.845,28.726],[83.849,28.727],[83.852,28.726],[83.857,28.726],[83.866,28.723],[83.867,28.723],[83.873,28.727],[83.874,28.727],[83.875,28.728],[83.875,28.73],[83.876,28.731],[83.877,28.731],[83.877,28.733],[83.878,28.734],[83.883,28.738],[83.888,28.742],[83.889,28.742],[83.891,28.743],[83.892,28.743],[83.893,28.744],[83.893,28.746],[83.896,28.756],[83.896,28.758],[83.896,28.761],[83.898,28.768],[83.898,28.769],[83.899,28.77],[83.902,28.773],[83.91,28.779],[83.912,28.779],[83.913,28.779],[83.921,28.779],[83.941,28.789],[83.942,28.791],[83.941,28.794],[83.942,28.797],[83.943,28.8],[83.944,28.804],[83.944,28.808],[83.941,28.81],[83.941,28.811],[83.94,28.817],[83.942,28.82],[83.941,28.823],[83.941,28.824],[83.94,28.825],[83.946,28.831],[83.947,28.832],[83.949,28.832],[83.95,28.833],[83.951,28.834],[83.96,28.835],[83.961,28.834],[83.966,28.827],[83.967,28.824],[83.968,28.82],[83.97,28.817],[83.974,28.816],[83.981,28.817],[83.982,28.817],[83.984,28.816],[83.986,28.815],[83.987,28.815],[83.99,28.814],[83.994,28.814],[83.999,28.813],[84.001,28.81],[84.002,28.809],[84.005,28.806],[84.006,28.804],[84.008,28.801],[84.009,28.801],[84.012,28.8],[84.015,28.798],[84.018,28.799],[84.019,28.8],[84.02,28.801],[84.021,28.801],[84.023,28.801],[84.026,28.806],[84.028,28.811],[84.029,28.811],[84.031,28.812],[84.033,28.812],[84.042,28.815],[84.042,28.816],[84.043,28.816],[84.044,28.818],[84.047,28.822],[84.05,28.823],[84.048,28.831],[84.049,28.833],[84.054,28.841],[84.054,28.842],[84.088,28.853],[84.089,28.858],[84.089,28.859],[84.088,28.868],[84.092,28.879],[84.122,28.882],[84.124,28.883],[84.127,28.885],[84.163,28.875],[84.177,28.89],[84.192,28.899]]]},"properties":{"OBJECTID":41,"PROVINCE":4,"PR_NAME":"Gandaki Pradesh","DISTRICT":"Mustang"}},
{"type":"Feature","geometry":{"type":"Polygon","coordinates":[[[83.604,28.298],[83.571,28.34],[83.595,28.391],[83.66,28.348],[83.703,28.398],[83.759,28.393],[83.734,28.42],[83.756,28.462],[83.83,28.542],[83.811,28.59],[83.874,28.613],[83.839,28.665],[83.791,28.693],[83.788,28.692],[83.784,28.691],[83.783,28.69],[83.781,28.689],[83.774,28.688],[83.768,28.687],[83.767,28.687],[83.766,28.688],[83.765,28.688],[83.763,28.688],[83.762,28.688],[83.759,28.688],[83.756,28.689],[83.745,28.686],[83.744,28.685],[83.742,28.682],[83.739,28.675],[83.739,28.672],[83.736,28.671],[83.736,28.67],[83.734,28.67],[83.73,28.667],[83.73,28.66],[83.729,28.659],[83.732,28.655],[83.732,28.654],[83.73,28.654],[83.725,28.653],[83.721,28.651],[83.72,28.65],[83.719,28.647],[83.718,28.646],[83.714,28.643],[83.71,28.641],[83.708,28.635],[83.706,28.629],[83.704,28.625],[83.701,28.619],[83.687,28.612],[83.686,28.609],[83.686,28.603],[83.675,28.577],[83.669,28.574],[83.666,28.568],[83.648,28.565],[83.642,28.566],[83.64,28.566],[83.644,28.572],[83.639,28.574],[83.638,28.574],[83.634,28.574],[83.625,28.575],[83.622,28.576],[83.618,28.581],[83.617,28.582],[83.609,28.585],[83.608,28.586],[83.606,28.586],[83.604,28.586],[83.585,28.586],[83.583,28.584],[83.58,28.586],[83.572,28.595],[83.573,28.598],[83.569,28.604],[83.567,28.606],[83.568,28.609],[83.568,28.61],[83.566,28.611],[83.565,28.612],[83.565,28.614],[83.564,28.619],[83.564,28.621],[83.566,28.628],[83.566,28.636],[83.565,28.636],[83.564,28.638],[83.564,28.642],[83.564,28.644],[83.55,28.651],[83.545,28.657],[83.545,28.659],[83.543,28.665],[83.543,28.666],[83.543,28.668],[83.543,28.67],[83.543,28.671],[83.543,28.672],[83.54,28.674],[83.54,28.675],[83.54,28.676],[83.534,28.685],[83.536,28.694],[83.539,28.695],[83.54,28.696],[83.541,28.696],[83.542,28.697],[83.54,28.702],[83.539,28.71],[83.541,28.715],[83.542,28.715],[83.542,28.716],[83.543,28.718],[83.543,28.719],[83.545,28.723],[83.546,28.723],[83.546,28.724],[83.548,28.727],[83.549,28.73],[83.549,28.731],[83.553,28.739],[83.556,28.741],[83.561,28.746],[83.56,28.751],[83.56,28.754],[83.557,28.757],[83.556,28.757],[83.557,28.76],[83.557,28.767],[83.549,28.776],[83.543,28.777],[83.542,28.778],[83.538,28.78],[83.536,28.781],[83.531,28.783],[83.53,28.783],[83.523,28.784],[83.522,28.785],[83.521,28.786],[83.513,28.788],[83.509,28.789],[83.508,28.791],[83.505,28.794],[83.502,28.793],[83.497,28.79],[83.496,28.79],[83.49,28.79],[83.489,28.791],[83.364,28.734],[83.279,28.722],[83.231,28.743],[83.147,28.747],[83.155,28.701],[83.109,28.632],[83.104,28.541],[83.133,28.496],[83.221,28.514],[83.276,28.493],[83.302,28.461],[83.275,28.442],[83.298,28.416],[83.288,28.368],[83.413,28.357],[83.445,28.329],[83.565,28.317],[83.604,28.298]]]},"properties":{"OBJECTID":42,"PROVINCE":4,"PR_NAME":"Gandaki Pradesh","DISTRICT":"Myagdi"}},
{"type":"Feature","geometry":{"type":"Polygon","coordinates":[[[84.424,27.741],[84.394,27.775],[84.329,27.748],[84.293,27.838],[84.176,27.852],[84.131,27.846],[84.08,27.869],[84.031,27.856],[84.029,27.82],[83.994,27.753],[83.926,27.727],[83.847,27.735],[83.848,27.709],[83.784,27.725],[83.732,27.709],[83.684,27.721],[83.697,27.662],[83.727,27.672],[83.814,27.662],[83.792,27.606],[83.826,27.592],[83.884,27.528],[83.898,27.438],[83.933,27.449],[83.967,27.523],[83.922,27.541],[83.971,27.55],[84.039,27.539],[84.048,27.554],[84.121,27.556],[84.137,27.584],[84.208,27.638],[84.294,27.668],[84.351,27.703],[84.38,27.681],[84.43,27.704],[84.424,27.741]]]},"properties":{"OBJECTID":43,"PROVINCE":4,"PR_NAME":"Gandaki Pradesh","DISTRICT":"Nawalpur"}},
{"type":"Feature","geometry":{"type":"Polygon","coordinates":[[[83.583,28.077],[83.564,28.036],[83.607,28.012],[83.695,28.027],[83.731,28.103],[83.707,28.118],[83.762,28.146],[83.758,28.19],[83.811,28.22],[83.825,28.251],[83.768,28.274],[83.777,28.309],[83.746,28.33],[83.703,28.398],[83.66,28.348],[83.595,28.391],[83.571,28.34],[83.604,28.298],[83.612,28.259],[83.677,28.214],[83.632,28.122],[83.583,28.077]]]},"properties":{"OBJECTID":44,"PROVINCE":4,"PR_NAME":"Gandaki Pradesh","DISTRICT":"Parbat"}},
{"type":"Feature","geometry":{"type":"Polygon","coordinates":[[[83.811,28.22],[83.758,28.19],[83.762,28.146],[83.707,28.118],[83.731,28.103],[83.695,28.027],[83.607,28.012],[83.579,27.974],[83.525,27.964],[83.483,27.98],[83.443,27.935],[83.486,27.923],[83.619,27.93],[83.635,27.902],[83.719,27.92],[83.764,27.91],[83.81,27.873],[83.882,27.887],[83.944,27.876],[83.976,27.902],[83.982,27.998],[84.034,28.019],[83.969,28.037],[83.942,28.068],[84.007,28.116],[83.982,28.143],[83.932,28.144],[83.893,28.194],[83.811,28.22]]]},"properties":{"OBJECTID":45,"PROVINCE":4,"PR_NAME":"Gandaki Pradesh","DISTRICT":"Syangja"}},
{"type":"Feature","geometry":{"type":"Polygon","coordinates":[[[84.561,27.858],[84.539,27.917],[84.427,27.952],[84.48,28.058],[84.398,28.13],[84.332,28.124],[84.234,28.079],[84.228,28.096],[84.108,28.11],[84.072,28.078],[84.007,28.116],[83.942,28.068],[83.969,28.037],[84.034,28.019],[83.982,27.998],[83.976,27.902],[83.944,27.876],[84.031,27.856],[84.08,27.869],[84.131,27.846],[84.176,27.852],[84.293,27.838],[84.329,27.748],[84.394,27.775],[84.424,27.741],[84.462,27.774],[84.432,27.79],[84.448,27.823],[84.52,27.817],[84.561,27.858]]]},"properties":{"OBJECTID":46,"PROVINCE":4,"PR_NAME":"Gandaki Pradesh","DISTRICT":"Tanahu"}},
{"type":"Feature","geometry":{"type":"Polygon","coordinates":[[[83.053,28.111],[83.004,28.114],[82.966,28.053],[82.955,27.993],[83.019,27.957],[83.018,27.928],[82.945,27.931],[82.918,27.904],[82.826,27.905],[82.807,27.878],[82.75,27.823],[82.806,27.795],[82.932,27.784],[83.025,27.797],[83.068,27.758],[83.095,27.783],[83.123,27.762],[83.214,27.759],[83.258,27.767],[83.233,27.823],[83.284,27.826],[83.333,27.877],[83.311,27.926],[83.305,27.956],[83.256,27.986],[83.232,28.048],[83.186,28.087],[83.158,28.061],[83.053,28.111]]]},"properties":{"OBJECTID":47,"PROVINCE":5,"PR_NAME":"Province No 5","DISTRICT":"Arghakhanchi"}},
{"type":"Feature","geometry":{"type":"Polygon","coordinates":[[[81.747,28.313],[81.688,28.338],[81.649,28.268],[81.529,28.192],[81.501,28.144],[81.507,28.069],[81.645,27.994],[81.7,27.988],[81.807,27.904],[81.887,27.857],[81.927,27.875],[81.97,27.929],[82.069,27.922],[82.069,27.95],[82.135,27.962],[82.194,27.953],[82.193,28.031],[82.109,28.073],[82.021,28.101],[82.009,28.151],[81.923,28.227],[81.846,28.272],[81.747,28.313]]]},"properties":{"OBJECTID":48,"PROVINCE":5,"PR_NAME":"Province No 5","DISTRICT":"Banke"}},
{"type":"Feature","geometry":{"type":"Polygon","coordinates":[[[81.747,28.313],[81.768,28.37],[81.661,28.415],[81.559,28.495],[81.436,28.562],[81.403,28.607],[81.319,28.636],[81.32,28.67],[81.287,28.673],[81.289,28.649],[81.25,28.594],[81.092,28.457],[81.069,28.394],[81.212,28.361],[81.234,28.289],[81.322,28.197],[81.306,28.168],[81.336,28.14],[81.373,28.142],[81.377,28.177],[81.448,28.161],[81.507,28.069],[81.501,28.144],[81.529,28.192],[81.649,28.268],[81.688,28.338],[81.747,28.313]]]},"properties":{"OBJECTID":49,"PROVINCE":5,"PR_NAME":"Province No 5","DISTRICT":"Bardiya"}},
{"type":"Feature","geometry":{"type":"Polygon","coordinates":[[[82.807,27.878],[82.779,27.893],[82.768,27.963],[82.699,28.013],[82.721,28.047],[82.688,28.051],[82.602,28.094],[82.504,28.148],[82.486,28.13],[82.399,28.169],[82.303,28.244],[82.17,28.251],[82.146,28.237],[82.103,28.259],[82.054,28.241],[82.009,28.151],[82.021,28.101],[82.109,28.073],[82.193,28.031],[82.194,27.953],[82.135,27.962],[82.069,27.95],[82.069,27.922],[82.125,27.865],[82.21,27.843],[82.306,27.772],[82.369,27.743],[82.451,27.679],[82.543,27.686],[82.71,27.722],[82.698,27.757],[82.733,27.775],[82.806,27.778],[82.806,27.795],[82.75,27.823],[82.807,27.878]]]},"properties":{"OBJECTID":50,"PROVINCE":5,"PR_NAME":"Province No 5","DISTRICT":"Dang"}},
{"type":"Feature","geometry":{"type":"Polygon","coordinates":[[[83.096,28.257],[83.08,28.234],[83.033,28.241],[83.053,28.111],[83.158,28.061],[83.186,28.087],[83.232,28.048],[83.256,27.986],[83.305,27.956],[83.311,27.926],[83.385,27.955],[83.443,27.935],[83.483,27.98],[83.525,27.964],[83.579,27.974],[83.607,28.012],[83.564,28.036],[83.583,28.077],[83.556,28.117],[83.42,28.137],[83.365,28.192],[83.276,28.187],[83.186,28.271],[83.096,28.257]]]},"properties":{"OBJECTID":51,"PROVINCE":5,"PR_NAME":"Province No 5","DISTRICT":"Gulmi"}},
{"type":"Feature","geometry":{"type":"Polygon","coordinates":[[[82.806,27.795],[82.806,27.778],[82.733,27.775],[82.698,27.757],[82.71,27.722],[82.715,27.663],[82.757,27.589],[82.738,27.502],[82.931,27.501],[82.956,27.468],[83.036,27.449],[83.19,27.454],[83.219,27.418],[83.235,27.514],[83.206,27.561],[83.233,27.608],[83.229,27.699],[83.214,27.759],[83.123,27.762],[83.095,27.783],[83.068,27.758],[83.025,27.797],[82.932,27.784],[82.806,27.795]]]},"properties":{"OBJECTID":52,"PROVINCE":5,"PR_NAME":"Province No 5","DISTRICT":"Kapilbastu"}},
{"type":"Feature","geometry":{"type":"Polygon","coordinates":[[[84.031,27.856],[83.944,27.876],[83.882,27.887],[83.81,27.873],[83.764,27.91],[83.719,27.92],[83.635,27.902],[83.619,27.93],[83.486,27.923],[83.443,27.935],[83.385,27.955],[83.311,27.926],[83.333,27.877],[83.284,27.826],[83.233,27.823],[83.258,27.767],[83.337,27.765],[83.444,27.724],[83.533,27.726],[83.635,27.693],[83.697,27.662],[83.684,27.721],[83.732,27.709],[83.784,27.725],[83.848,27.709],[83.847,27.735],[83.926,27.727],[83.994,27.753],[84.029,27.82],[84.031,27.856]]]},"properties":{"OBJECTID":53,"PROVINCE":5,"PR_NAME":"Province No 5","DISTRICT":"Palpa"}},
{"type":"Feature","geometry":{"type":"Polygon","coordinates":[[[83.697,27.662],[83.635,27.693],[83.631,27.664],[83.577,27.618],[83.597,27.575],[83.592,27.524],[83.617,27.469],[83.832,27.37],[83.865,27.346],[83.907,27.39],[83.875,27.392],[83.898,27.438],[83.884,27.528],[83.826,27.592],[83.792,27.606],[83.814,27.662],[83.727,27.672],[83.697,27.662]]]},"properties":{"OBJECTID":54,"PROVINCE":5,"PR_NAME":"Province No 5","DISTRICT":"Parasi"}},
{"type":"Feature","geometry":{"type":"Polygon","coordinates":[[[82.957,28.36],[82.929,28.348],[82.891,28.277],[82.851,28.256],[82.827,28.198],[82.76,28.18],[82.735,28.207],[82.615,28.17],[82.59,28.14],[82.602,28.094],[82.688,28.051],[82.721,28.047],[82.699,28.013],[82.768,27.963],[82.779,27.893],[82.807,27.878],[82.826,27.905],[82.918,27.904],[82.945,27.931],[83.018,27.928],[83.019,27.957],[82.955,27.993],[82.966,28.053],[83.004,28.114],[83.053,28.111],[83.033,28.241],[83.08,28.234],[83.096,28.257],[83.099,28.277],[83.045,28.324],[82.957,28.36]]]},"properties":{"OBJECTID":55,"PROVINCE":5,"PR_NAME":"Province No 5","DISTRICT":"Pyuthan"}},
{"type":"Feature","geometry":{"type":"Polygon","coordinates":[[[82.881,28.476],[82.835,28.478],[82.689,28.524],[82.659,28.493],[82.547,28.525],[82.531,28.558],[82.462,28.521],[82.42,28.529],[82.378,28.43],[82.353,28.424],[82.385,28.373],[82.365,28.341],[82.415,28.254],[82.399,28.169],[82.486,28.13],[82.504,28.148],[82.602,28.094],[82.59,28.14],[82.615,28.17],[82.735,28.207],[82.76,28.18],[82.827,28.198],[82.851,28.256],[82.891,28.277],[82.929,28.348],[82.957,28.36],[82.881,28.476]]]},"properties":{"OBJECTID":56,"PROVINCE":5,"PR_NAME":"Province No 5","DISTRICT":"Rolpa"}},
{"type":"Feature","geometry":{"type":"Polygon","coordinates":[[[83.109,28.632],[83.155,28.701],[83.147,28.747],[83.117,28.743],[83.082,28.781],[82.944,28.827],[82.87,28.834],[82.783,28.824],[82.698,28.865],[82.651,28.869],[82.622,28.811],[82.569,28.771],[82.603,28.743],[82.617,28.689],[82.557,28.644],[82.492,28.659],[82.488,28.641],[82.563,28.61],[82.583,28.587],[82.531,28.558],[82.547,28.525],[82.659,28.493],[82.689,28.524],[82.835,28.478],[82.881,28.476],[82.914,28.481],[82.879,28.515],[82.916,28.527],[82.918,28.565],[82.976,28.542],[82.988,28.57],[82.959,28.611],[82.985,28.631],[83.059,28.62],[83.109,28.632]]]},"properties":{"OBJECTID":57,"PROVINCE":5,"PR_NAME":"Province No 5","DISTRICT":"Rukum East"}},
{"type":"Feature","geometry":{"type":"Polygon","coordinates":[[[83.214,27.759],[83.229,27.699],[83.233,27.608],[83.206,27.561],[83.235,27.514],[83.219,27.418],[83.274,27.383],[83.307,27.331],[83.361,27.343],[83.408,27.419],[83.391,27.479],[83.617,27.469],[83.592,27.524],[83.597,27.575],[83.577,27.618],[83.631,27.664],[83.635,27.693],[83.533,27.726],[83.444,27.724],[83.337,27.765],[83.258,27.767],[83.214,27.759]]]},"properties":{"OBJECTID":58,"PROVINCE":5,"PR_NAME":"Province No 5","DISTRICT":"Rupandehi"}},
{"type":"Feature","geometry":{"type":"Polygon","coordinates":[[[81.922,28.978],[81.824,28.983],[81.795,29.012],[81.718,29.02],[81.693,29.049],[81.615,29.033],[81.566,29.054],[81.567,29.126],[81.471,29.077],[81.413,28.998],[81.447,28.94],[81.51,28.89],[81.583,28.759],[81.548,28.749],[81.565,28.723],[81.641,28.676],[81.778,28.633],[81.813,28.68],[81.822,28.724],[81.914,28.78],[81.88,28.849],[81.896,28.901],[81.926,28.925],[81.922,28.978]]]},"properties":{"OBJECTID":59,"PROVINCE":6,"PR_NAME":"Karnali Pradesh","DISTRICT":"Dailekh"}},
{"type":"Feature","geometry":{"type":"Polygon","coordinates":[[[83.682,29.123],[83.659,29.176],[83.635,29.158],[83.574,29.202],[83.522,29.217],[83.517,29.256],[83.465,29.277],[83.417,29.359],[83.428,29.403],[83.382,29.424],[83.344,29.466],[83.347,29.494],[83.284,29.499],[83.256,29.545],[83.286,29.563],[83.234,29.578],[83.199,29.611],[83.071,29.61],[83.01,29.673],[82.959,29.662],[82.936,29.704],[82.829,29.69],[82.829,29.649],[82.798,29.637],[82.821,29.559],[82.788,29.519],[82.735,29.508],[82.717,29.432],[82.644,29.385],[82.625,29.425],[82.56,29.411],[82.55,29.38],[82.592,29.326],[82.533,29.25],[82.584,29.191],[82.555,29.165],[82.474,29.164],[82.42,29.137],[82.414,29.095],[82.394,29.018],[82.442,28.99],[82.492,29.016],[82.58,28.99],[82.668,28.963],[82.701,28.909],[82.698,28.865],[82.783,28.824],[82.87,28.834],[82.944,28.827],[83.082,28.781],[83.117,28.743],[83.147,28.747],[83.231,28.743],[83.279,28.722],[83.364,28.734],[83.489,28.791],[83.49,28.801],[83.49,28.804],[83.487,28.81],[83.484,28.816],[83.483,28.816],[83.482,28.822],[83.483,28.826],[83.485,28.829],[83.485,28.831],[83.485,28.834],[83.484,28.835],[83.483,28.836],[83.483,28.839],[83.49,28.846],[83.492,28.846],[83.493,28.846],[83.496,28.845],[83.503,28.845],[83.504,28.851],[83.505,28.853],[83.508,28.856],[83.508,28.858],[83.508,28.863],[83.508,28.866],[83.504,28.873],[83.502,28.875],[83.502,28.877],[83.513,28.888],[83.514,28.888],[83.515,28.888],[83.516,28.889],[83.518,28.891],[83.52,28.893],[83.524,28.897],[83.525,28.899],[83.526,28.899],[83.526,28.9],[83.527,28.901],[83.53,28.904],[83.534,28.909],[83.539,28.913],[83.54,28.914],[83.542,28.915],[83.543,28.916],[83.547,28.921],[83.548,28.921],[83.55,28.924],[83.553,28.928],[83.56,28.937],[83.56,28.938],[83.56,28.939],[83.56,28.94],[83.559,28.942],[83.56,28.943],[83.564,28.945],[83.568,28.944],[83.568,28.943],[83.573,28.947],[83.575,28.95],[83.58,28.955],[83.584,28.958],[83.584,28.96],[83.584,28.964],[83.586,28.966],[83.588,28.968],[83.589,28.971],[83.589,28.973],[83.59,28.978],[83.6,28.986],[83.601,28.985],[83.604,28.983],[83.605,28.982],[83.606,28.981],[83.61,28.98],[83.612,28.981],[83.613,28.983],[83.617,28.987],[83.617,28.992],[83.617,28.998],[83.618,29.004],[83.617,29.009],[83.617,29.01],[83.615,29.015],[83.618,29.017],[83.616,29.024],[83.617,29.028],[83.616,29.031],[83.615,29.036],[83.618,29.041],[83.62,29.055],[83.632,29.075],[83.64,29.107],[83.65,29.104],[83.682,29.123]]]},"properties":{"OBJECTID":60,"PROVINCE":6,"PR_NAME":"Karnali Pradesh","DISTRICT":"Dolpa"}},
{"type":"Feature","geometry":{"type":"Polygon","coordinates":[[[82.5,29.947],[82.395,30.025],[82.365,30.01],[82.336,30.047],[82.307,30.037],[82.246,30.075],[82.168,30.076],[82.174,30.118],[82.207,30.154],[82.189,30.186],[82.1,30.239],[82.13,30.303],[82.087,30.359],[82,30.321],[81.884,30.361],[81.87,30.377],[81.776,30.384],[81.622,30.447],[81.609,30.412],[81.567,30.43],[81.557,30.374],[81.49,30.382],[81.41,30.421],[81.398,30.324],[81.425,30.305],[81.394,30.251],[81.398,30.209],[81.334,30.153],[81.26,30.151],[81.292,30.113],[81.274,30.045],[81.384,30.007],[81.403,30.023],[81.456,30.002],[81.472,29.89],[81.507,29.894],[81.518,29.922],[81.689,29.949],[81.718,29.909],[81.801,29.902],[81.782,29.807],[81.742,29.792],[81.699,29.68],[81.702,29.643],[81.74,29.606],[81.776,29.606],[81.793,29.627],[81.855,29.619],[81.893,29.668],[81.99,29.7],[82.037,29.749],[82.103,29.684],[82.105,29.635],[82.236,29.663],[82.234,29.701],[82.284,29.692],[82.341,29.716],[82.394,29.696],[82.416,29.732],[82.408,29.811],[82.442,29.824],[82.45,29.889],[82.5,29.947]]]},"properties":{"OBJECTID":61,"PROVINCE":6,"PR_NAME":"Karnali Pradesh","DISTRICT":"Humla"}},
{"type":"Feature","geometry":{"type":"Polygon","coordinates":[[[81.822,28.724],[81.861,28.692],[81.888,28.643],[82.038,28.638],[82.083,28.619],[82.187,28.623],[82.196,28.669],[82.25,28.712],[82.274,28.694],[82.296,28.785],[82.366,28.796],[82.391,28.835],[82.464,28.875],[82.499,28.879],[82.515,28.95],[82.58,28.99],[82.492,29.016],[82.442,28.99],[82.394,29.018],[82.414,29.095],[82.302,29.12],[82.169,29.069],[82.08,28.969],[82.013,29.03],[81.96,28.986],[81.922,28.978],[81.926,28.925],[81.896,28.901],[81.88,28.849],[81.914,28.78],[81.822,28.724]]]},"properties":{"OBJECTID":62,"PROVINCE":6,"PR_NAME":"Karnali Pradesh","DISTRICT":"Jajarkot"}},
{"type":"Feature","geometry":{"type":"Polygon","coordinates":[[[82.56,29.411],[82.515,29.42],[82.498,29.493],[82.434,29.443],[82.388,29.502],[82.312,29.504],[82.296,29.442],[82.183,29.407],[82.133,29.47],[82.043,29.483],[81.981,29.473],[81.933,29.437],[81.93,29.33],[81.909,29.322],[81.852,29.244],[81.913,29.2],[81.898,29.168],[82.019,29.092],[82.013,29.03],[82.08,28.969],[82.169,29.069],[82.302,29.12],[82.414,29.095],[82.42,29.137],[82.474,29.164],[82.555,29.165],[82.584,29.191],[82.533,29.25],[82.592,29.326],[82.55,29.38],[82.56,29.411]]]},"properties":{"OBJECTID":63,"PROVINCE":6,"PR_NAME":"Karnali Pradesh","DISTRICT":"Jumla"}},
{"type":"Feature","geometry":{"type":"Polygon","coordinates":[[[81.922,28.978],[81.96,28.986],[82.013,29.03],[82.019,29.092],[81.898,29.168],[81.913,29.2],[81.852,29.244],[81.909,29.322],[81.93,29.33],[81.933,29.437],[81.869,29.461],[81.81,29.454],[81.791,29.389],[81.771,29.392],[81.741,29.334],[81.65,29.321],[81.619,29.371],[81.56,29.358],[81.47,29.272],[81.501,29.239],[81.484,29.201],[81.501,29.152],[81.567,29.126],[81.566,29.054],[81.615,29.033],[81.693,29.049],[81.718,29.02],[81.795,29.012],[81.824,28.983],[81.922,28.978]]]},"properties":{"OBJECTID":64,"PROVINCE":6,"PR_NAME":"Karnali Pradesh","DISTRICT":"Kalikot"}},
{"type":"Feature","geometry":{"type":"Polygon","coordinates":[[[82.829,29.69],[82.82,29.721],[82.765,29.731],[82.747,29.769],[82.688,29.773],[82.739,29.814],[82.699,29.855],[82.622,29.838],[82.64,29.875],[82.611,29.884],[82.565,29.955],[82.533,29.971],[82.5,29.947],[82.45,29.889],[82.442,29.824],[82.408,29.811],[82.416,29.732],[82.394,29.696],[82.341,29.716],[82.284,29.692],[82.234,29.701],[82.236,29.663],[82.105,29.635],[82.103,29.684],[82.037,29.749],[81.99,29.7],[81.893,29.668],[81.855,29.619],[81.793,29.627],[81.776,29.606],[81.801,29.559],[81.782,29.509],[81.81,29.454],[81.869,29.461],[81.933,29.437],[81.981,29.473],[82.043,29.483],[82.133,29.47],[82.183,29.407],[82.296,29.442],[82.312,29.504],[82.388,29.502],[82.434,29.443],[82.498,29.493],[82.515,29.42],[82.56,29.411],[82.625,29.425],[82.644,29.385],[82.717,29.432],[82.735,29.508],[82.788,29.519],[82.821,29.559],[82.798,29.637],[82.829,29.649],[82.829,29.69]]]},"properties":{"OBJECTID":65,"PROVINCE":6,"PR_NAME":"Karnali Pradesh","DISTRICT":"Mugu"}},
{"type":"Feature","geometry":{"type":"Polygon","coordinates":[[[82.531,28.558],[82.583,28.587],[82.563,28.61],[82.488,28.641],[82.492,28.659],[82.557,28.644],[82.617,28.689],[82.603,28.743],[82.569,28.771],[82.622,28.811],[82.651,28.869],[82.698,28.865],[82.701,28.909],[82.668,28.963],[82.58,28.99],[82.515,28.95],[82.499,28.879],[82.464,28.875],[82.391,28.835],[82.366,28.796],[82.296,28.785],[82.274,28.694],[82.25,28.712],[82.196,28.669],[82.187,28.623],[82.275,28.593],[82.342,28.59],[82.395,28.526],[82.42,28.529],[82.462,28.521],[82.531,28.558]]]},"properties":{"OBJECTID":66,"PROVINCE":6,"PR_NAME":"Karnali Pradesh","DISTRICT":"Rukum West"}},
{"type":"Feature","geometry":{"type":"Polygon","coordinates":[[[82.009,28.151],[82.054,28.241],[82.103,28.259],[82.146,28.237],[82.17,28.251],[82.303,28.244],[82.399,28.169],[82.415,28.254],[82.365,28.341],[82.385,28.373],[82.353,28.424],[82.378,28.43],[82.42,28.529],[82.395,28.526],[82.342,28.59],[82.275,28.593],[82.187,28.623],[82.083,28.619],[82.038,28.638],[81.996,28.57],[82.02,28.542],[82.013,28.469],[81.964,28.425],[81.992,28.395],[81.983,28.365],[81.939,28.337],[81.843,28.38],[81.781,28.39],[81.768,28.37],[81.747,28.313],[81.846,28.272],[81.923,28.227],[82.009,28.151]]]},"properties":{"OBJECTID":67,"PROVINCE":6,"PR_NAME":"Karnali Pradesh","DISTRICT":"Salyan"}},
{"type":"Feature","geometry":{"type":"Polygon","coordinates":[[[81.768,28.37],[81.781,28.39],[81.843,28.38],[81.939,28.337],[81.983,28.365],[81.992,28.395],[81.964,28.425],[82.013,28.469],[82.02,28.542],[81.996,28.57],[82.038,28.638],[81.888,28.643],[81.861,28.692],[81.822,28.724],[81.813,28.68],[81.778,28.633],[81.641,28.676],[81.565,28.723],[81.548,28.749],[81.525,28.8],[81.465,28.854],[81.465,28.895],[81.433,28.911],[81.351,28.89],[81.305,28.925],[81.265,28.902],[81.171,28.921],[81.106,28.966],[81.05,28.978],[80.983,28.939],[81.023,28.919],[81.105,28.845],[81.146,28.872],[81.207,28.817],[81.202,28.863],[81.244,28.81],[81.287,28.673],[81.32,28.67],[81.319,28.636],[81.403,28.607],[81.436,28.562],[81.559,28.495],[81.661,28.415],[81.768,28.37]]]},"properties":{"OBJECTID":68,"PROVINCE":6,"PR_NAME":"Karnali Pradesh","DISTRICT":"Surkhet"}},
{"type":"Feature","geometry":{"type":"Polygon","coordinates":[[[81.567,29.126],[81.501,29.152],[81.484,29.201],[81.501,29.239],[81.47,29.272],[81.39,29.3],[81.356,29.284],[81.311,29.325],[81.271,29.302],[81.252,29.349],[81.172,29.387],[81.155,29.382],[81.137,29.305],[81.1,29.247],[81.112,29.223],[81.029,29.196],[81.067,29.135],[81.111,29.097],[81.147,29.034],[81.147,28.993],[81.106,28.966],[81.171,28.921],[81.265,28.902],[81.305,28.925],[81.351,28.89],[81.433,28.911],[81.465,28.895],[81.465,28.854],[81.525,28.8],[81.548,28.749],[81.583,28.759],[81.51,28.89],[81.447,28.94],[81.413,28.998],[81.471,29.077],[81.567,29.126]]]},"properties":{"OBJECTID":69,"PROVINCE":7,"PR_NAME":"Sudurpashchim Pradesh","DISTRICT":"Achham"}},
{"type":"Feature","geometry":{"type":"Polygon","coordinates":[[[80.787,29.697],[80.747,29.705],[80.744,29.704],[80.739,29.705],[80.736,29.706],[80.732,29.704],[80.721,29.703],[80.713,29.7],[80.71,29.699],[80.709,29.699],[80.709,29.7],[80.7,29.705],[80.697,29.706],[80.683,29.697],[80.679,29.693],[80.678,29.692],[80.677,29.691],[80.677,29.689],[80.669,29.686],[80.668,29.686],[80.665,29.684],[80.659,29.682],[80.657,29.682],[80.648,29.683],[80.648,29.684],[80.647,29.685],[80.645,29.686],[80.642,29.689],[80.64,29.69],[80.639,29.69],[80.634,29.69],[80.633,29.69],[80.632,29.689],[80.631,29.689],[80.625,29.687],[80.604,29.691],[80.6,29.691],[80.599,29.691],[80.597,29.691],[80.588,29.688],[80.578,29.688],[80.575,29.687],[80.574,29.687],[80.574,29.686],[80.566,29.676],[80.561,29.671],[80.559,29.671],[80.556,29.671],[80.555,29.671],[80.554,29.669],[80.547,29.666],[80.546,29.667],[80.543,29.664],[80.53,29.657],[80.526,29.655],[80.522,29.654],[80.518,29.651],[80.517,29.651],[80.514,29.649],[80.513,29.649],[80.513,29.648],[80.504,29.635],[80.499,29.629],[80.497,29.624],[80.485,29.623],[80.482,29.623],[80.476,29.622],[80.471,29.621],[80.469,29.62],[80.462,29.625],[80.461,29.626],[80.46,29.626],[80.451,29.625],[80.443,29.617],[80.442,29.617],[80.44,29.62],[80.439,29.62],[80.438,29.62],[80.435,29.619],[80.433,29.618],[80.43,29.617],[80.427,29.612],[80.419,29.613],[80.419,29.609],[80.42,29.607],[80.414,29.605],[80.315,29.485],[80.304,29.453],[80.248,29.447],[80.243,29.412],[80.319,29.313],[80.37,29.35],[80.42,29.362],[80.433,29.393],[80.55,29.399],[80.652,29.383],[80.684,29.425],[80.748,29.4],[80.787,29.366],[80.855,29.379],[80.854,29.406],[80.91,29.441],[80.887,29.442],[80.818,29.516],[80.749,29.532],[80.773,29.552],[80.793,29.641],[80.764,29.647],[80.798,29.688],[80.794,29.69],[80.791,29.692],[80.79,29.695],[80.787,29.697]]]},"properties":{"OBJECTID":70,"PROVINCE":7,"PR_NAME":"Sudurpashchim Pradesh","DISTRICT":"Baitadi"}},
{"type":"Feature","geometry":{"type":"Polygon","coordinates":[[[81.274,30.045],[81.151,30.012],[81.092,30.054],[81.091,30.054],[81.088,30.053],[81.087,30.053],[81.086,30.053],[81.086,30.052],[81.085,30.051],[81.084,30.051],[81.084,30.05],[81.082,30.049],[81.082,30.048],[81.081,30.048],[81.08,30.047],[81.079,30.046],[81.078,30.046],[81.077,30.046],[81.075,30.045],[81.074,30.045],[81.069,30.042],[81.067,30.039],[81.067,30.038],[81.066,30.037],[81.065,30.036],[81.063,30.034],[81.06,30.031],[81.059,30.03],[81.057,30.028],[81.056,30.025],[81.054,30.024],[81.052,30.023],[81.051,30.022],[81.05,30.022],[81.048,30.02],[81.047,30.02],[81.047,30.019],[81.046,30.018],[81.041,30.015],[81.04,30.013],[81.04,30.011],[81.04,30.01],[81.039,30.006],[81.038,30.006],[81.038,30.005],[81.037,30.004],[81.035,30],[81.03,29.993],[81.03,29.992],[81.029,29.992],[81.028,29.989],[81.028,29.988],[81.026,29.986],[81.025,29.986],[81.023,29.983],[81.022,29.983],[81.02,29.983],[81.019,29.982],[81.018,29.978],[81.019,29.977],[81.022,29.975],[81.022,29.973],[81.022,29.972],[81.02,29.968],[81.02,29.963],[81.023,29.959],[81.02,29.956],[81.018,29.953],[81.018,29.951],[81.017,29.951],[81.017,29.949],[81.016,29.948],[81.012,29.946],[81.012,29.945],[81.009,29.941],[81.008,29.94],[81.005,29.938],[81.004,29.934],[81.004,29.933],[81.004,29.932],[81.005,29.923],[81.011,29.92],[81.014,29.918],[81.018,29.914],[81.019,29.913],[81.02,29.913],[81.024,29.911],[81.024,29.91],[81.026,29.909],[81.029,29.907],[81.03,29.906],[81.031,29.904],[81.031,29.902],[81.032,29.898],[81.035,29.891],[81.037,29.889],[81.04,29.885],[81.041,29.883],[81.041,29.88],[81.04,29.873],[81.039,29.868],[81.039,29.866],[81.038,29.865],[81.042,29.858],[81.04,29.855],[81.041,29.855],[81.04,29.852],[81.04,29.851],[81.04,29.845],[81.041,29.841],[81.042,29.84],[81.043,29.84],[81.044,29.839],[81.05,29.835],[81.051,29.835],[81.053,29.834],[81.056,29.832],[81.059,29.829],[81.061,29.829],[81.065,29.827],[81.066,29.827],[81.07,29.828],[81.073,29.825],[81.072,29.822],[81.072,29.821],[81.072,29.819],[81.072,29.816],[81.071,29.813],[81.071,29.808],[81.071,29.802],[81.07,29.802],[81.07,29.801],[81.07,29.796],[81.068,29.795],[81.067,29.795],[81.064,29.794],[81.064,29.793],[81.064,29.792],[81.065,29.79],[81.066,29.785],[81.066,29.781],[81.066,29.78],[81.065,29.775],[81.063,29.77],[81.063,29.766],[81.063,29.765],[81.062,29.762],[81.055,29.756],[81.048,29.754],[81.046,29.753],[81.045,29.753],[81.043,29.752],[81.041,29.753],[81.039,29.75],[81.036,29.746],[81.02,29.746],[81.014,29.746],[81.011,29.746],[80.966,29.725],[80.962,29.726],[80.948,29.736],[80.938,29.734],[80.92,29.725],[80.919,29.725],[80.9,29.721],[80.891,29.714],[80.887,29.714],[80.867,29.706],[80.86,29.696],[80.846,29.692],[80.83,29.69],[80.812,29.685],[80.802,29.687],[80.799,29.688],[80.798,29.688],[80.764,29.647],[80.793,29.641],[80.773,29.552],[80.749,29.532],[80.818,29.516],[80.887,29.442],[80.91,29.441],[80.941,29.398],[81.01,29.42],[81.146,29.391],[81.189,29.398],[81.254,29.413],[81.309,29.46],[81.373,29.55],[81.401,29.557],[81.429,29.644],[81.518,29.679],[81.51,29.742],[81.562,29.771],[81.55,29.802],[81.566,29.852],[81.507,29.894],[81.472,29.89],[81.456,30.002],[81.403,30.023],[81.384,30.007],[81.274,30.045]]]},"properties":{"OBJECTID":71,"PROVINCE":7,"PR_NAME":"Sudurpashchim Pradesh","DISTRICT":"Bajhang"}},
{"type":"Feature","geometry":{"type":"Polygon","coordinates":[[[81.507,29.894],[81.566,29.852],[81.55,29.802],[81.562,29.771],[81.51,29.742],[81.518,29.679],[81.429,29.644],[81.401,29.557],[81.373,29.55],[81.309,29.46],[81.254,29.413],[81.189,29.398],[81.172,29.387],[81.252,29.349],[81.271,29.302],[81.311,29.325],[81.356,29.284],[81.39,29.3],[81.47,29.272],[81.56,29.358],[81.619,29.371],[81.65,29.321],[81.741,29.334],[81.771,29.392],[81.791,29.389],[81.81,29.454],[81.782,29.509],[81.801,29.559],[81.776,29.606],[81.74,29.606],[81.702,29.643],[81.699,29.68],[81.742,29.792],[81.782,29.807],[81.801,29.902],[81.718,29.909],[81.689,29.949],[81.518,29.922],[81.507,29.894]]]},"properties":{"OBJECTID":72,"PROVINCE":7,"PR_NAME":"Sudurpashchim Pradesh","DISTRICT":"Bajura"}},
{"type":"Feature","geometry":{"type":"Polygon","coordinates":[[[80.319,29.313],[80.299,29.206],[80.251,29.221],[80.274,29.143],[80.237,29.119],[80.186,29.137],[80.188,29.087],[80.229,29.046],[80.35,29.054],[80.422,29.026],[80.461,29.037],[80.487,28.998],[80.537,29.014],[80.563,29.068],[80.528,29.106],[80.569,29.145],[80.631,29.176],[80.706,29.192],[80.708,29.231],[80.759,29.268],[80.739,29.302],[80.774,29.301],[80.759,29.345],[80.787,29.366],[80.748,29.4],[80.684,29.425],[80.652,29.383],[80.55,29.399],[80.433,29.393],[80.42,29.362],[80.37,29.35],[80.319,29.313]]]},"properties":{"OBJECTID":73,"PROVINCE":7,"PR_NAME":"Sudurpashchim Pradesh","DISTRICT":"Dadeldhura"}},
{"type":"Feature","geometry":{"type":"Polygon","coordinates":[[[80.798,29.688],[80.799,29.688],[80.802,29.687],[80.812,29.685],[80.83,29.69],[80.846,29.692],[80.86,29.696],[80.867,29.706],[80.887,29.714],[80.891,29.714],[80.9,29.721],[80.919,29.725],[80.92,29.725],[80.938,29.734],[80.948,29.736],[80.962,29.726],[80.966,29.725],[81.011,29.746],[81.014,29.746],[81.02,29.746],[81.036,29.746],[81.039,29.75],[81.041,29.753],[81.043,29.752],[81.045,29.753],[81.046,29.753],[81.048,29.754],[81.055,29.756],[81.062,29.762],[81.063,29.765],[81.063,29.766],[81.063,29.77],[81.065,29.775],[81.066,29.78],[81.066,29.781],[81.066,29.785],[81.065,29.79],[81.064,29.792],[81.064,29.793],[81.064,29.794],[81.067,29.795],[81.068,29.795],[81.07,29.796],[81.07,29.801],[81.07,29.802],[81.071,29.802],[81.071,29.808],[81.071,29.813],[81.072,29.816],[81.072,29.819],[81.072,29.821],[81.072,29.822],[81.073,29.825],[81.07,29.828],[81.066,29.827],[81.065,29.827],[81.061,29.829],[81.059,29.829],[81.056,29.832],[81.053,29.834],[81.051,29.835],[81.05,29.835],[81.044,29.839],[81.043,29.84],[81.042,29.84],[81.041,29.841],[81.04,29.845],[81.04,29.851],[81.04,29.852],[81.041,29.855],[81.04,29.855],[81.042,29.858],[81.038,29.865],[81.039,29.866],[81.039,29.868],[81.04,29.873],[81.041,29.88],[81.041,29.883],[81.04,29.885],[81.037,29.889],[81.035,29.891],[81.032,29.898],[81.031,29.902],[81.031,29.904],[81.03,29.906],[81.029,29.907],[81.026,29.909],[81.024,29.91],[81.024,29.911],[81.02,29.913],[81.019,29.913],[81.018,29.914],[81.014,29.918],[81.011,29.92],[81.005,29.923],[81.004,29.932],[81.004,29.933],[81.004,29.934],[81.005,29.938],[81.008,29.94],[81.009,29.941],[81.012,29.945],[81.012,29.946],[81.016,29.948],[81.017,29.949],[81.017,29.951],[81.018,29.951],[81.018,29.953],[81.02,29.956],[81.023,29.959],[81.02,29.963],[81.02,29.968],[81.022,29.972],[81.022,29.973],[81.022,29.975],[81.019,29.977],[81.018,29.978],[81.019,29.982],[81.02,29.983],[81.022,29.983],[81.023,29.983],[81.025,29.986],[81.026,29.986],[81.028,29.988],[81.028,29.989],[81.029,29.992],[81.03,29.992],[81.03,29.993],[81.035,30],[81.037,30.004],[81.038,30.005],[81.038,30.006],[81.039,30.006],[81.04,30.01],[81.04,30.011],[81.04,30.013],[81.041,30.015],[81.046,30.018],[81.047,30.019],[81.047,30.02],[81.048,30.02],[81.05,30.022],[81.051,30.022],[81.052,30.023],[81.054,30.024],[81.056,30.025],[81.057,30.028],[81.059,30.03],[81.06,30.031],[81.063,30.034],[81.065,30.036],[81.066,30.037],[81.067,30.038],[81.067,30.039],[81.069,30.042],[81.074,30.045],[81.075,30.045],[81.077,30.046],[81.078,30.046],[81.079,30.046],[81.08,30.047],[81.081,30.048],[81.082,30.048],[81.082,30.049],[81.084,30.05],[81.084,30.051],[81.085,30.051],[81.086,30.052],[81.086,30.053],[81.087,30.053],[81.088,30.053],[81.091,30.054],[81.092,30.054],[81.11,30.086],[81.083,30.101],[81.085,30.148],[81.044,30.194],[81.036,30.234],[80.985,30.269],[80.938,30.26],[80.908,30.301],[80.806,30.32],[80.788,30.35],[80.711,30.413],[80.609,30.467],[80.661,30.354],[80.76,30.302],[80.763,30.279],[80.873,30.161],[80.88,30.132],[80.763,30.049],[80.74,30],[80.675,29.957],[80.597,29.953],[80.554,29.85],[80.494,29.795],[80.409,29.794],[80.368,29.729],[80.393,29.664],[80.418,29.65],[80.414,29.605],[80.42,29.607],[80.419,29.609],[80.419,29.613],[80.427,29.612],[80.43,29.617],[80.433,29.618],[80.435,29.619],[80.438,29.62],[80.439,29.62],[80.44,29.62],[80.442,29.617],[80.443,29.617],[80.451,29.625],[80.46,29.626],[80.461,29.626],[80.462,29.625],[80.469,29.62],[80.471,29.621],[80.476,29.622],[80.482,29.623],[80.485,29.623],[80.497,29.624],[80.499,29.629],[80.504,29.635],[80.513,29.648],[80.513,29.649],[80.514,29.649],[80.517,29.651],[80.518,29.651],[80.522,29.654],[80.526,29.655],[80.53,29.657],[80.543,29.664],[80.546,29.667],[80.547,29.666],[80.554,29.669],[80.555,29.671],[80.556,29.671],[80.559,29.671],[80.561,29.671],[80.566,29.676],[80.574,29.686],[80.574,29.687],[80.575,29.687],[80.578,29.688],[80.588,29.688],[80.597,29.691],[80.599,29.691],[80.6,29.691],[80.604,29.691],[80.625,29.687],[80.631,29.689],[80.632,29.689],[80.633,29.69],[80.634,29.69],[80.639,29.69],[80.64,29.69],[80.642,29.689],[80.645,29.686],[80.647,29.685],[80.648,29.684],[80.648,29.683],[80.657,29.682],[80.659,29.682],[80.665,29.684],[80.668,29.686],[80.669,29.686],[80.677,29.689],[80.677,29.691],[80.678,29.692],[80.679,29.693],[80.683,29.697],[80.697,29.706],[80.7,29.705],[80.709,29.7],[80.709,29.699],[80.71,29.699],[80.713,29.7],[80.721,29.703],[80.732,29.704],[80.736,29.706],[80.739,29.705],[80.744,29.704],[80.747,29.705],[80.787,29.697],[80.79,29.695],[80.791,29.692],[80.794,29.69],[80.798,29.688]]]},"properties":{"OBJECTID":74,"PROVINCE":7,"PR_NAME":"Sudurpashchim Pradesh","DISTRICT":"Darchula"}},
{"type":"Feature","geometry":{"type":"Polygon","coordinates":[[[81.106,28.966],[81.147,28.993],[81.147,29.034],[81.111,29.097],[81.067,29.135],[81.029,29.196],[81.112,29.223],[81.1,29.247],[81.137,29.305],[81.155,29.382],[81.172,29.387],[81.189,29.398],[81.146,29.391],[81.01,29.42],[80.941,29.398],[80.91,29.441],[80.854,29.406],[80.855,29.379],[80.787,29.366],[80.759,29.345],[80.774,29.301],[80.739,29.302],[80.759,29.268],[80.708,29.231],[80.706,29.192],[80.631,29.176],[80.569,29.145],[80.528,29.106],[80.563,29.068],[80.617,29.059],[80.645,29.029],[80.74,29.011],[80.801,28.977],[80.828,28.932],[80.852,28.975],[80.883,28.946],[80.983,28.939],[81.05,28.978],[81.106,28.966]]]},"properties":{"OBJECTID":75,"PROVINCE":7,"PR_NAME":"Sudurpashchim Pradesh","DISTRICT":"Doti"}},
{"type":"Feature","geometry":{"type":"Polygon","coordinates":[[[81.287,28.673],[81.244,28.81],[81.202,28.863],[81.207,28.817],[81.146,28.872],[81.105,28.845],[81.023,28.919],[80.983,28.939],[80.883,28.946],[80.852,28.975],[80.828,28.932],[80.801,28.977],[80.74,29.011],[80.645,29.029],[80.617,29.059],[80.563,29.068],[80.537,29.014],[80.487,28.998],[80.47,28.939],[80.509,28.897],[80.498,28.856],[80.552,28.778],[80.556,28.691],[80.613,28.639],[80.669,28.642],[80.716,28.568],[80.77,28.565],[80.786,28.529],[80.867,28.49],[80.91,28.498],[80.917,28.458],[81.019,28.452],[81.018,28.416],[81.069,28.394],[81.092,28.457],[81.25,28.594],[81.289,28.649],[81.287,28.673]]]},"properties":{"OBJECTID":76,"PROVINCE":7,"PR_NAME":"Sudurpashchim Pradesh","DISTRICT":"Kailali"}},
{"type":"Feature","geometry":{"type":"Polygon","coordinates":[[[80.186,29.137],[80.146,29.103],[80.12,28.982],[80.102,28.986],[80.06,28.916],[80.066,28.837],[80.12,28.829],[80.218,28.755],[80.252,28.758],[80.28,28.71],[80.319,28.7],[80.328,28.666],[80.378,28.628],[80.416,28.639],[80.462,28.622],[80.473,28.59],[80.524,28.553],[80.505,28.665],[80.556,28.691],[80.552,28.778],[80.498,28.856],[80.509,28.897],[80.47,28.939],[80.487,28.998],[80.461,29.037],[80.422,29.026],[80.35,29.054],[80.229,29.046],[80.188,29.087],[80.186,29.137]]]},"properties":{"OBJECTID":77,"PROVINCE":7,"PR_NAME":"Sudurpashchim Pradesh","DISTRICT":"Kanchanpur"}}
]}